{
"type": "FeatureCollection",
"crs": { "type": "name", "properties": { "name": "urn:ogc:def:crs:OGC:1.3:CRS84" } },
"features": [
	{ "type": "Feature", "properties": { "osm_id": "366919959", "amenity": "waste_basket", "other_tags": "\"waste\"=>\"trash\"" }, "geometry": { "type": "Point", "coordinates": [ -1.8419878, 53.859641 ] } },
	{ "type": "Feature", "properties": { "osm_id": "1227379058", "amenity": "waste_basket" }, "geometry": { "type": "Point", "coordinates": [ -1.7368135, 53.7765497 ] } },
	{ "type": "Feature", "properties": { "osm_id": "1227379086", "amenity": "waste_basket" }, "geometry": { "type": "Point", "coordinates": [ -1.7415476, 53.7792252 ] } },
	{ "type": "Feature", "properties": { "osm_id": "1227379087", "amenity": "waste_basket" }, "geometry": { "type": "Point", "coordinates": [ -1.7393911, 53.7784058 ] } },
	{ "type": "Feature", "properties": { "osm_id": "1227379101", "amenity": "waste_basket" }, "geometry": { "type": "Point", "coordinates": [ -1.7398417, 53.7783011 ] } },
	{ "type": "Feature", "properties": { "osm_id": "1227379103", "amenity": "waste_basket" }, "geometry": { "type": "Point", "coordinates": [ -1.7412258, 53.7770284 ] } },
	{ "type": "Feature", "properties": { "osm_id": "1227379105", "amenity": "waste_basket" }, "geometry": { "type": "Point", "coordinates": [ -1.7415798, 53.7767495 ] } },
	{ "type": "Feature", "properties": { "osm_id": "1227379119", "amenity": "waste_basket" }, "geometry": { "type": "Point", "coordinates": [ -1.7347455, 53.7744876 ] } },
	{ "type": "Feature", "properties": { "osm_id": "1227379136", "amenity": "waste_basket" }, "geometry": { "type": "Point", "coordinates": [ -1.7380822, 53.7747555 ] } },
	{ "type": "Feature", "properties": { "osm_id": "1227379141", "amenity": "waste_basket" }, "geometry": { "type": "Point", "coordinates": [ -1.7420867, 53.7801777 ] } },
	{ "type": "Feature", "properties": { "osm_id": "1227379176", "amenity": "waste_basket" }, "geometry": { "type": "Point", "coordinates": [ -1.7353651, 53.7747158 ] } },
	{ "type": "Feature", "properties": { "osm_id": "1227379188", "amenity": "waste_basket" }, "geometry": { "type": "Point", "coordinates": [ -1.7391953, 53.7767208 ] } },
	{ "type": "Feature", "properties": { "osm_id": "1227379189", "amenity": "waste_basket" }, "geometry": { "type": "Point", "coordinates": [ -1.7386616, 53.7763769 ] } },
	{ "type": "Feature", "properties": { "osm_id": "1227379191", "amenity": "waste_basket" }, "geometry": { "type": "Point", "coordinates": [ -1.7378515, 53.7768002 ] } },
	{ "type": "Feature", "properties": { "osm_id": "1417324492", "amenity": "waste_basket" }, "geometry": { "type": "Point", "coordinates": [ -1.982042, 53.8307699 ] } },
	{ "type": "Feature", "properties": { "osm_id": "3940962869", "amenity": "waste_basket" }, "geometry": { "type": "Point", "coordinates": [ -1.8005559, 53.9163473 ] } },
	{ "type": "Feature", "properties": { "osm_id": "4057268935", "amenity": "waste_basket" }, "geometry": { "type": "Point", "coordinates": [ -1.9483954, 53.8313401 ] } },
	{ "type": "Feature", "properties": { "osm_id": "4057277609", "amenity": "waste_basket" }, "geometry": { "type": "Point", "coordinates": [ -1.9493928, 53.8305947 ] } },
	{ "type": "Feature", "properties": { "osm_id": "4057506691", "amenity": "waste_basket" }, "geometry": { "type": "Point", "coordinates": [ -1.9352392, 53.835314 ] } },
	{ "type": "Feature", "properties": { "osm_id": "5536419730", "amenity": "waste_basket" }, "geometry": { "type": "Point", "coordinates": [ -1.7664775, 53.819187 ] } },
	{ "type": "Feature", "properties": { "osm_id": "6393478352", "amenity": "waste_basket", "other_tags": "\"waste\"=>\"trash\"" }, "geometry": { "type": "Point", "coordinates": [ -1.8382171, 53.8520338 ] } },
	{ "type": "Feature", "properties": { "osm_id": "6393478371", "amenity": "waste_basket", "other_tags": "\"waste\"=>\"trash\"" }, "geometry": { "type": "Point", "coordinates": [ -1.8380535, 53.8548792 ] } },
	{ "type": "Feature", "properties": { "osm_id": "6393478373", "amenity": "waste_basket", "other_tags": "\"waste\"=>\"trash\"" }, "geometry": { "type": "Point", "coordinates": [ -1.8382573, 53.8563497 ] } },
	{ "type": "Feature", "properties": { "osm_id": "6393478377", "amenity": "waste_basket", "other_tags": "\"waste\"=>\"trash\"" }, "geometry": { "type": "Point", "coordinates": [ -1.8395609, 53.8576809 ] } },
	{ "type": "Feature", "properties": { "osm_id": "6415978049", "amenity": "waste_basket", "other_tags": "\"waste\"=>\"trash\"" }, "geometry": { "type": "Point", "coordinates": [ -1.8320802, 53.8542733 ] } },
	{ "type": "Feature", "properties": { "osm_id": "6509647594", "amenity": "waste_basket", "other_tags": "\"waste\"=>\"trash\"" }, "geometry": { "type": "Point", "coordinates": [ -1.8190312, 53.8301528 ] } },
	{ "type": "Feature", "properties": { "osm_id": "6509647596", "amenity": "waste_basket", "other_tags": "\"waste\"=>\"trash\"" }, "geometry": { "type": "Point", "coordinates": [ -1.8207585, 53.8304354 ] } },
	{ "type": "Feature", "properties": { "osm_id": "6586129872", "amenity": "waste_basket", "other_tags": "\"waste\"=>\"trash\"" }, "geometry": { "type": "Point", "coordinates": [ -1.8399404, 53.8481672 ] } },
	{ "type": "Feature", "properties": { "osm_id": "6872262615", "amenity": "waste_basket" }, "geometry": { "type": "Point", "coordinates": [ -1.7429011, 53.8267602 ] } },
	{ "type": "Feature", "properties": { "osm_id": "6872262628", "amenity": "waste_basket" }, "geometry": { "type": "Point", "coordinates": [ -1.7416167, 53.82886 ] } },
	{ "type": "Feature", "properties": { "osm_id": "6872262749", "amenity": "waste_basket" }, "geometry": { "type": "Point", "coordinates": [ -1.7340566, 53.824406 ] } },
	{ "type": "Feature", "properties": { "osm_id": "6937731912", "amenity": "waste_basket", "other_tags": "\"waste\"=>\"trash\"" }, "geometry": { "type": "Point", "coordinates": [ -1.8371777, 53.8567017 ] } },
	{ "type": "Feature", "properties": { "osm_id": "7429091242", "amenity": "waste_basket", "other_tags": "\"condition\"=>\"GOOD\",\"collection_times\"=>\"Tu\",\"ref:UK:leedscc:bin\"=>\"375\",\"waste_basket:model\"=>\"METAL SQUARE\"" }, "geometry": { "type": "Point", "coordinates": [ -1.701324, 53.802241 ] } },
	{ "type": "Feature", "properties": { "osm_id": "8125034025", "amenity": "waste_basket" }, "geometry": { "type": "Point", "coordinates": [ -1.851226, 53.7663316 ] } },
	{ "type": "Feature", "properties": { "osm_id": "8125034026", "amenity": "waste_basket" }, "geometry": { "type": "Point", "coordinates": [ -1.8516313, 53.7661887 ] } },
	{ "type": "Feature", "properties": { "osm_id": "8125034027", "amenity": "waste_basket" }, "geometry": { "type": "Point", "coordinates": [ -1.8514043, 53.7661282 ] } },
	{ "type": "Feature", "properties": { "osm_id": "8125034028", "amenity": "waste_basket" }, "geometry": { "type": "Point", "coordinates": [ -1.8481166, 53.7677443 ] } },
	{ "type": "Feature", "properties": { "osm_id": "8125034029", "amenity": "waste_basket" }, "geometry": { "type": "Point", "coordinates": [ -1.8474623, 53.7682187 ] } },
	{ "type": "Feature", "properties": { "osm_id": "8125034030", "amenity": "waste_basket" }, "geometry": { "type": "Point", "coordinates": [ -1.8465855, 53.7681359 ] } },
	{ "type": "Feature", "properties": { "osm_id": "8125034064", "amenity": "waste_basket" }, "geometry": { "type": "Point", "coordinates": [ -1.8427325, 53.7688073 ] } },
	{ "type": "Feature", "properties": { "osm_id": "8215166982", "amenity": "waste_basket", "other_tags": "\"operator\"=>\"City of Bradford\"" }, "geometry": { "type": "Point", "coordinates": [ -1.7227939, 53.8618785 ] } },
	{ "type": "Feature", "properties": { "osm_id": "8234347380", "amenity": "waste_basket", "other_tags": "\"waste\"=>\"trash\"" }, "geometry": { "type": "Point", "coordinates": [ -1.8200786, 53.8336403 ] } },
	{ "type": "Feature", "properties": { "osm_id": "8234347381", "amenity": "waste_basket", "other_tags": "\"waste\"=>\"trash\"" }, "geometry": { "type": "Point", "coordinates": [ -1.8219227, 53.833755 ] } },
	{ "type": "Feature", "properties": { "osm_id": "8234347382", "amenity": "waste_basket", "other_tags": "\"waste\"=>\"trash\"" }, "geometry": { "type": "Point", "coordinates": [ -1.8306828, 53.8400685 ] } },
	{ "type": "Feature", "properties": { "osm_id": "8234347383", "amenity": "waste_basket", "other_tags": "\"waste\"=>\"trash\"" }, "geometry": { "type": "Point", "coordinates": [ -1.8285142, 53.8367782 ] } },
	{ "type": "Feature", "properties": { "osm_id": "8234347384", "amenity": "waste_basket", "other_tags": "\"waste\"=>\"trash\"" }, "geometry": { "type": "Point", "coordinates": [ -1.8311977, 53.8411269 ] } },
	{ "type": "Feature", "properties": { "osm_id": "8234347386", "amenity": "waste_basket", "other_tags": "\"waste\"=>\"trash\"" }, "geometry": { "type": "Point", "coordinates": [ -1.8317327, 53.8420839 ] } },
	{ "type": "Feature", "properties": { "osm_id": "8234347387", "amenity": "waste_basket", "other_tags": "\"waste\"=>\"trash\"" }, "geometry": { "type": "Point", "coordinates": [ -1.8348509, 53.845525 ] } },
	{ "type": "Feature", "properties": { "osm_id": "8243907237", "amenity": "waste_basket" }, "geometry": { "type": "Point", "coordinates": [ -1.7734525, 53.8329354 ] } },
	{ "type": "Feature", "properties": { "osm_id": "8243907238", "amenity": "waste_basket" }, "geometry": { "type": "Point", "coordinates": [ -1.7735617, 53.8329577 ] } },
	{ "type": "Feature", "properties": { "osm_id": "8246200763", "amenity": "waste_basket" }, "geometry": { "type": "Point", "coordinates": [ -1.8604732, 53.8541288 ] } },
	{ "type": "Feature", "properties": { "osm_id": "8246201427", "amenity": "waste_basket" }, "geometry": { "type": "Point", "coordinates": [ -1.8979306, 53.8274459 ] } },
	{ "type": "Feature", "properties": { "osm_id": "8261997376", "amenity": "waste_basket", "other_tags": "\"waste\"=>\"trash\"" }, "geometry": { "type": "Point", "coordinates": [ -1.8368451, 53.8469875 ] } },
	{ "type": "Feature", "properties": { "osm_id": "8261997377", "amenity": "waste_basket", "other_tags": "\"waste\"=>\"trash\"" }, "geometry": { "type": "Point", "coordinates": [ -1.8274882, 53.8478669 ] } },
	{ "type": "Feature", "properties": { "osm_id": "8261997378", "amenity": "waste_basket", "other_tags": "\"waste\"=>\"trash\"" }, "geometry": { "type": "Point", "coordinates": [ -1.8272026, 53.8476889 ] } },
	{ "type": "Feature", "properties": { "osm_id": "8261997379", "amenity": "waste_basket", "other_tags": "\"waste\"=>\"trash\"" }, "geometry": { "type": "Point", "coordinates": [ -1.8283103, 53.8471984 ] } },
	{ "type": "Feature", "properties": { "osm_id": "8261997380", "amenity": "waste_basket", "other_tags": "\"waste\"=>\"trash\"" }, "geometry": { "type": "Point", "coordinates": [ -1.8285102, 53.8471035 ] } },
	{ "type": "Feature", "properties": { "osm_id": "8294350708", "amenity": "waste_basket" }, "geometry": { "type": "Point", "coordinates": [ -1.8403313, 53.8504318 ] } },
	{ "type": "Feature", "properties": { "osm_id": "8318514797", "amenity": "waste_basket", "other_tags": "\"waste\"=>\"trash\"" }, "geometry": { "type": "Point", "coordinates": [ -1.8317503, 53.8495481 ] } },
	{ "type": "Feature", "properties": { "osm_id": "8318514798", "amenity": "waste_basket", "other_tags": "\"waste\"=>\"trash\"" }, "geometry": { "type": "Point", "coordinates": [ -1.8314633, 53.8493804 ] } },
	{ "type": "Feature", "properties": { "osm_id": "8318514799", "amenity": "waste_basket", "other_tags": "\"waste\"=>\"trash\"" }, "geometry": { "type": "Point", "coordinates": [ -1.8351419, 53.8472459 ] } },
	{ "type": "Feature", "properties": { "osm_id": "8318514800", "amenity": "waste_basket", "other_tags": "\"waste\"=>\"trash\"" }, "geometry": { "type": "Point", "coordinates": [ -1.8358728, 53.8473305 ] } },
	{ "type": "Feature", "properties": { "osm_id": "8318514801", "amenity": "waste_basket", "other_tags": "\"waste\"=>\"trash\"" }, "geometry": { "type": "Point", "coordinates": [ -1.8370688, 53.8477837 ] } },
	{ "type": "Feature", "properties": { "osm_id": "8318514802", "amenity": "waste_basket", "other_tags": "\"waste\"=>\"trash\"" }, "geometry": { "type": "Point", "coordinates": [ -1.8386368, 53.8477008 ] } },
	{ "type": "Feature", "properties": { "osm_id": "8318514803", "amenity": "waste_basket", "other_tags": "\"waste\"=>\"trash\"" }, "geometry": { "type": "Point", "coordinates": [ -1.8390204, 53.8482451 ] } },
	{ "type": "Feature", "properties": { "osm_id": "8318514804", "amenity": "waste_basket", "other_tags": "\"waste\"=>\"trash\"" }, "geometry": { "type": "Point", "coordinates": [ -1.8390352, 53.848094 ] } },
	{ "type": "Feature", "properties": { "osm_id": "8318514805", "amenity": "waste_basket", "other_tags": "\"waste\"=>\"trash\"" }, "geometry": { "type": "Point", "coordinates": [ -1.8388072, 53.8479223 ] } },
	{ "type": "Feature", "properties": { "osm_id": "8318514806", "amenity": "waste_basket", "other_tags": "\"waste\"=>\"trash\"" }, "geometry": { "type": "Point", "coordinates": [ -1.8399498, 53.8482916 ] } },
	{ "type": "Feature", "properties": { "osm_id": "8318514807", "amenity": "waste_basket", "other_tags": "\"waste\"=>\"trash\"" }, "geometry": { "type": "Point", "coordinates": [ -1.8386851, 53.8473353 ] } },
	{ "type": "Feature", "properties": { "osm_id": "8318514808", "amenity": "waste_basket", "other_tags": "\"waste\"=>\"trash\"" }, "geometry": { "type": "Point", "coordinates": [ -1.8383056, 53.848056 ] } },
	{ "type": "Feature", "properties": { "osm_id": "8318514809", "amenity": "waste_basket", "other_tags": "\"waste\"=>\"trash\"" }, "geometry": { "type": "Point", "coordinates": [ -1.8379821, 53.8480078 ] } },
	{ "type": "Feature", "properties": { "osm_id": "8318602341", "amenity": "waste_basket", "other_tags": "\"waste\"=>\"trash\"" }, "geometry": { "type": "Point", "coordinates": [ -1.8380937, 53.8477332 ] } },
	{ "type": "Feature", "properties": { "osm_id": "8358914871", "amenity": "waste_basket" }, "geometry": { "type": "Point", "coordinates": [ -1.8176081, 53.9352098 ] } },
	{ "type": "Feature", "properties": { "osm_id": "8381065909", "amenity": "waste_basket" }, "geometry": { "type": "Point", "coordinates": [ -1.7428539, 53.8900284 ] } },
	{ "type": "Feature", "properties": { "osm_id": "8381070743", "amenity": "waste_basket" }, "geometry": { "type": "Point", "coordinates": [ -1.7436645, 53.8903692 ] } },
	{ "type": "Feature", "properties": { "osm_id": "8381070746", "amenity": "waste_basket" }, "geometry": { "type": "Point", "coordinates": [ -1.742754, 53.8896041 ] } },
	{ "type": "Feature", "properties": { "osm_id": "8381070767", "amenity": "waste_basket" }, "geometry": { "type": "Point", "coordinates": [ -1.7396431, 53.8894213 ] } },
	{ "type": "Feature", "properties": { "osm_id": "8381070771", "amenity": "waste_basket" }, "geometry": { "type": "Point", "coordinates": [ -1.739301, 53.889157 ] } },
	{ "type": "Feature", "properties": { "osm_id": "8381070774", "amenity": "waste_basket" }, "geometry": { "type": "Point", "coordinates": [ -1.7374866, 53.8886944 ] } },
	{ "type": "Feature", "properties": { "osm_id": "8381070775", "amenity": "waste_basket" }, "geometry": { "type": "Point", "coordinates": [ -1.7373255, 53.8888279 ] } },
	{ "type": "Feature", "properties": { "osm_id": "8381070776", "amenity": "waste_basket" }, "geometry": { "type": "Point", "coordinates": [ -1.7372052, 53.888757 ] } },
	{ "type": "Feature", "properties": { "osm_id": "8381070777", "amenity": "waste_basket" }, "geometry": { "type": "Point", "coordinates": [ -1.7369717, 53.8887068 ] } },
	{ "type": "Feature", "properties": { "osm_id": "8381070779", "amenity": "waste_basket" }, "geometry": { "type": "Point", "coordinates": [ -1.7358052, 53.8882907 ] } },
	{ "type": "Feature", "properties": { "osm_id": "8385471630", "amenity": "waste_basket", "other_tags": "\"waste\"=>\"recycling\"" }, "geometry": { "type": "Point", "coordinates": [ -1.7515527, 53.7932929 ] } }
]
}
