{
"type": "FeatureCollection",
"crs": { "type": "name", "properties": { "name": "urn:ogc:def:crs:OGC:1.3:CRS84" } },
"features": [
	{ "type": "Feature", "properties": { "osm_id": "317592549", "amenity": "toilets", "other_tags": "\"fee\"=>\"yes\"" }, "geometry": { "type": "Point", "coordinates": [ -1.7529064, 53.7928521 ] } },
	{ "type": "Feature", "properties": { "osm_id": "333123005", "amenity": "toilets", "other_tags": "\"building\"=>\"yes\"" }, "geometry": { "type": "Point", "coordinates": [ -1.7678558, 53.8099177 ] } },
	{ "type": "Feature", "properties": { "osm_id": "413990424", "amenity": "toilets" }, "geometry": { "type": "Point", "coordinates": [ -1.9080944, 53.8650398 ] } },
	{ "type": "Feature", "properties": { "osm_id": "747723191", "amenity": "toilets" }, "geometry": { "type": "Point", "coordinates": [ -1.7387095, 53.8893692 ] } },
	{ "type": "Feature", "properties": { "osm_id": "1348746533", "amenity": "toilets", "other_tags": "\"designation\"=>\"Male\",\"fee\"=>\"no\",\"wheelchair\"=>\"yes\"" }, "geometry": { "type": "Point", "coordinates": [ -1.9584444, 53.8319871 ] } },
	{ "type": "Feature", "properties": { "osm_id": "1348746540", "amenity": "toilets", "other_tags": "\"designation\"=>\"Female\",\"fee\"=>\"no\",\"wheelchair\"=>\"yes\"" }, "geometry": { "type": "Point", "coordinates": [ -1.9578972, 53.8320014 ] } },
	{ "type": "Feature", "properties": { "osm_id": "2316867481", "amenity": "toilets" }, "geometry": { "type": "Point", "coordinates": [ -1.749868, 53.913529 ] } },
	{ "type": "Feature", "properties": { "osm_id": "5331826503", "amenity": "toilets" }, "geometry": { "type": "Point", "coordinates": [ -1.8078011, 53.8363804 ] } },
	{ "type": "Feature", "properties": { "osm_id": "5966155637", "amenity": "toilets" }, "geometry": { "type": "Point", "coordinates": [ -1.7553301, 53.7920427 ] } },
	{ "type": "Feature", "properties": { "osm_id": "8309280987", "amenity": "toilets" }, "geometry": { "type": "Point", "coordinates": [ -1.7574814, 53.7967977 ] } },
	{ "type": "Feature", "properties": { "osm_id": "8633753169", "amenity": "toilets", "other_tags": "\"changing_table\"=>\"yes\",\"fee\"=>\"no\",\"indoor\"=>\"yes\",\"opening_hours\"=>\"Mo-Sa 08:00-18:00; Su 10:00-16:30\",\"wheelchair\"=>\"yes\"" }, "geometry": { "type": "Point", "coordinates": [ -1.9069862, 53.8667208 ] } },
	{ "type": "Feature", "properties": { "osm_id": "9759846854", "amenity": "toilets" }, "geometry": { "type": "Point", "coordinates": [ -1.8388175, 53.8472997 ] } },
	{ "type": "Feature", "properties": { "osm_id": "9759846855", "amenity": "toilets" }, "geometry": { "type": "Point", "coordinates": [ -1.8388454, 53.8473498 ] } },
	{ "type": "Feature", "properties": { "osm_way_id": "140749571", "amenity": "toilets", "building": "toilets", "other_tags": "\"changing_table\"=>\"yes\",\"charge\"=>\"20p\",\"fee\"=>\"yes\",\"toilets:disposal\"=>\"flush\"" }, "geometry": { "type": "Polygon", "coordinates": [ [ [ -1.8251021, 53.9250743 ], [ -1.824953, 53.9250717 ], [ -1.8249577, 53.9249796 ], [ -1.8251068, 53.9249822 ], [ -1.8251021, 53.9250743 ] ] ] } },
	{ "type": "Feature", "properties": { "osm_way_id": "227118841", "amenity": "toilets", "building": "yes", "other_tags": "\"building:levels\"=>\"1\",\"changing_table\"=>\"yes\",\"female\"=>\"yes\",\"male\"=>\"yes\",\"opening_hours\"=>\"closed\",\"wheelchair\"=>\"yes\"" }, "geometry": { "type": "Polygon", "coordinates": [ [ [ -1.7890056, 53.8377523 ], [ -1.788961, 53.8377489 ], [ -1.7889766, 53.8376778 ], [ -1.7890212, 53.8376812 ], [ -1.7890056, 53.8377523 ] ] ] } },
	{ "type": "Feature", "properties": { "osm_way_id": "272994312", "amenity": "toilets", "building": "yes" }, "geometry": { "type": "Polygon", "coordinates": [ [ [ -1.820803, 53.9318667 ], [ -1.820641, 53.9318876 ], [ -1.820566, 53.931686 ], [ -1.820688, 53.9316703 ], [ -1.8207169, 53.9317479 ], [ -1.8207569, 53.9317428 ], [ -1.820803, 53.9318667 ] ] ] } },
	{ "type": "Feature", "properties": { "osm_way_id": "403404507", "name": "Ladies", "amenity": "toilets", "building": "yes" }, "geometry": { "type": "Polygon", "coordinates": [ [ [ -1.9330305, 53.8353773 ], [ -1.9330311, 53.8353399 ], [ -1.9331191, 53.8353411 ], [ -1.9331164, 53.8353789 ], [ -1.9330305, 53.8353773 ] ] ] } },
	{ "type": "Feature", "properties": { "osm_way_id": "403404508", "name": "Gents", "amenity": "toilets", "building": "yes" }, "geometry": { "type": "Polygon", "coordinates": [ [ [ -1.9327329, 53.8353789 ], [ -1.9327335, 53.8353414 ], [ -1.9328215, 53.8353426 ], [ -1.9328189, 53.8353805 ], [ -1.9327329, 53.8353789 ] ] ] } },
	{ "type": "Feature", "properties": { "osm_way_id": "413460831", "amenity": "toilets", "building": "yes" }, "geometry": { "type": "Polygon", "coordinates": [ [ [ -1.8221399, 53.9168823 ], [ -1.8220678, 53.9169075 ], [ -1.8220333, 53.9168732 ], [ -1.8221054, 53.9168481 ], [ -1.8221399, 53.9168823 ] ] ] } },
	{ "type": "Feature", "properties": { "osm_way_id": "507981929", "amenity": "toilets", "building": "yes", "other_tags": "\"access\"=>\"yes\",\"fee\"=>\"no\",\"unisex\"=>\"yes\"" }, "geometry": { "type": "Polygon", "coordinates": [ [ [ -1.8291747, 53.9287124 ], [ -1.8290006, 53.9286916 ], [ -1.8290175, 53.9286367 ], [ -1.8291956, 53.9286557 ], [ -1.8291747, 53.9287124 ] ] ] } },
	{ "type": "Feature", "properties": { "osm_way_id": "561504993", "amenity": "toilets", "building": "yes" }, "geometry": { "type": "Polygon", "coordinates": [ [ [ -1.9381723, 53.9149057 ], [ -1.9381093, 53.9149247 ], [ -1.9380718, 53.9148815 ], [ -1.9380545, 53.9148867 ], [ -1.9380197, 53.9148467 ], [ -1.9381, 53.9148225 ], [ -1.9381723, 53.9149057 ] ] ] } },
	{ "type": "Feature", "properties": { "osm_way_id": "600869829", "amenity": "toilets", "building": "yes", "other_tags": "\"addr:city\"=>\"Shipley\",\"addr:street\"=>\"Northgate\",\"addr:village\"=>\"Baildon\"" }, "geometry": { "type": "Polygon", "coordinates": [ [ [ -1.7668583, 53.8547293 ], [ -1.7667551, 53.8547623 ], [ -1.7666839, 53.8546849 ], [ -1.766787, 53.8546519 ], [ -1.7668583, 53.8547293 ] ] ] } },
	{ "type": "Feature", "properties": { "osm_way_id": "984393253", "amenity": "toilets", "building": "yes", "other_tags": "\"access\"=>\"private\",\"drinking_water\"=>\"yes\"" }, "geometry": { "type": "Polygon", "coordinates": [ [ [ -1.8507269, 53.8338183 ], [ -1.8507875, 53.8338988 ], [ -1.8507151, 53.8339178 ], [ -1.8506545, 53.8338373 ], [ -1.8507269, 53.8338183 ] ] ] } },
	{ "type": "Feature", "properties": { "osm_way_id": "984393262", "amenity": "toilets", "building": "yes", "other_tags": "\"access\"=>\"private\"" }, "geometry": { "type": "Polygon", "coordinates": [ [ [ -1.8514243, 53.8362115 ], [ -1.8513143, 53.8361735 ], [ -1.8513812, 53.8361061 ], [ -1.8514912, 53.8361441 ], [ -1.8514243, 53.8362115 ] ] ] } },
	{ "type": "Feature", "properties": { "osm_way_id": "984393264", "amenity": "toilets", "building": "yes", "other_tags": "\"access\"=>\"private\"" }, "geometry": { "type": "Polygon", "coordinates": [ [ [ -1.8502723, 53.834973 ], [ -1.8502132, 53.8350037 ], [ -1.8501435, 53.834957 ], [ -1.8502025, 53.8349263 ], [ -1.8502723, 53.834973 ] ] ] } }
]
}
