{
"type": "FeatureCollection",
"crs": { "type": "name", "properties": { "name": "urn:ogc:def:crs:OGC:1.3:CRS84" } },
"features": [
	{ "type": "Feature", "properties": { "osm_id": "304990749", "amenity": "parking_entrance" }, "geometry": { "type": "Point", "coordinates": [ -1.5520243, 53.8037074 ] } },
	{ "type": "Feature", "properties": { "osm_id": "317020516", "name": "Calarence Dock Car Park", "amenity": "parking_entrance", "other_tags": "\"fee\"=>\"no\",\"lit\"=>\"yes\",\"access\"=>\"yes\",\"covered\"=>\"yes\",\"parking\"=>\"multi-storey\",\"surface\"=>\"concrete\",\"smoothness\"=>\"good\"" }, "geometry": { "type": "Point", "coordinates": [ -1.5302366, 53.7908486 ] } },
	{ "type": "Feature", "properties": { "osm_id": "317440799", "amenity": "parking_entrance" }, "geometry": { "type": "Point", "coordinates": [ -1.5557833, 53.7978034 ] } },
	{ "type": "Feature", "properties": { "osm_id": "664210175", "amenity": "parking_entrance" }, "geometry": { "type": "Point", "coordinates": [ -1.5469921, 53.805398 ] } },
	{ "type": "Feature", "properties": { "osm_id": "664210227", "amenity": "parking_entrance" }, "geometry": { "type": "Point", "coordinates": [ -1.5468672, 53.8043328 ] } },
	{ "type": "Feature", "properties": { "osm_id": "921265775", "amenity": "parking_entrance" }, "geometry": { "type": "Point", "coordinates": [ -1.5585609, 53.7962684 ] } },
	{ "type": "Feature", "properties": { "osm_id": "1676360798", "amenity": "parking_entrance" }, "geometry": { "type": "Point", "coordinates": [ -1.5459422, 53.7942346 ] } },
	{ "type": "Feature", "properties": { "osm_id": "2134260432", "amenity": "parking_entrance" }, "geometry": { "type": "Point", "coordinates": [ -1.5325134, 53.7939728 ] } },
	{ "type": "Feature", "properties": { "osm_id": "2142650177", "amenity": "parking_entrance" }, "geometry": { "type": "Point", "coordinates": [ -1.5442414, 53.7949701 ] } },
	{ "type": "Feature", "properties": { "osm_id": "2389222684", "amenity": "parking_entrance", "other_tags": "\"layer\"=>\"-1\"" }, "geometry": { "type": "Point", "coordinates": [ -1.5563555, 53.7962512 ] } },
	{ "type": "Feature", "properties": { "osm_id": "3043472125", "amenity": "parking_entrance" }, "geometry": { "type": "Point", "coordinates": [ -1.541398, 53.8048874 ] } },
	{ "type": "Feature", "properties": { "osm_id": "3050169753", "amenity": "parking_entrance" }, "geometry": { "type": "Point", "coordinates": [ -1.5443845, 53.7949685 ] } },
	{ "type": "Feature", "properties": { "osm_id": "3291173097", "amenity": "parking_entrance" }, "geometry": { "type": "Point", "coordinates": [ -1.5570908, 53.7981645 ] } },
	{ "type": "Feature", "properties": { "osm_id": "3393775170", "amenity": "parking_entrance" }, "geometry": { "type": "Point", "coordinates": [ -1.5472606, 53.802942 ] } },
	{ "type": "Feature", "properties": { "osm_id": "3393775171", "amenity": "parking_entrance" }, "geometry": { "type": "Point", "coordinates": [ -1.5472004, 53.8029629 ] } },
	{ "type": "Feature", "properties": { "osm_id": "3393785330", "amenity": "parking_entrance" }, "geometry": { "type": "Point", "coordinates": [ -1.5476647, 53.8020677 ] } },
	{ "type": "Feature", "properties": { "osm_id": "3417491948", "amenity": "parking_entrance" }, "geometry": { "type": "Point", "coordinates": [ -1.5509216, 53.7954971 ] } },
	{ "type": "Feature", "properties": { "osm_id": "3784542671", "amenity": "parking_entrance" }, "geometry": { "type": "Point", "coordinates": [ -1.5556914, 53.7976597 ] } },
	{ "type": "Feature", "properties": { "osm_id": "3784990264", "amenity": "parking_entrance" }, "geometry": { "type": "Point", "coordinates": [ -1.5553684, 53.7976687 ] } },
	{ "type": "Feature", "properties": { "osm_id": "3784990267", "amenity": "parking_entrance" }, "geometry": { "type": "Point", "coordinates": [ -1.5570572, 53.798127 ] } },
	{ "type": "Feature", "properties": { "osm_id": "3872967601", "amenity": "parking_entrance" }, "geometry": { "type": "Point", "coordinates": [ -1.5489053, 53.7969767 ] } },
	{ "type": "Feature", "properties": { "osm_id": "4100216481", "amenity": "parking_entrance" }, "geometry": { "type": "Point", "coordinates": [ -1.5464688, 53.804408 ] } },
	{ "type": "Feature", "properties": { "osm_id": "4457813298", "amenity": "parking_entrance" }, "geometry": { "type": "Point", "coordinates": [ -1.5375949, 53.7966947 ] } },
	{ "type": "Feature", "properties": { "osm_id": "4457813300", "amenity": "parking_entrance" }, "geometry": { "type": "Point", "coordinates": [ -1.5375991, 53.7966577 ] } },
	{ "type": "Feature", "properties": { "osm_id": "4457813302", "amenity": "parking_entrance", "other_tags": "\"parking\"=>\"multi-storey\"" }, "geometry": { "type": "Point", "coordinates": [ -1.5368311, 53.7966012 ] } },
	{ "type": "Feature", "properties": { "osm_id": "4457813304", "amenity": "parking_entrance", "other_tags": "\"parking\"=>\"multi-storey\"" }, "geometry": { "type": "Point", "coordinates": [ -1.5367425, 53.7965987 ] } },
	{ "type": "Feature", "properties": { "osm_id": "4467370433", "amenity": "parking_entrance" }, "geometry": { "type": "Point", "coordinates": [ -1.624653, 53.8851376 ] } },
	{ "type": "Feature", "properties": { "osm_id": "4598882278", "amenity": "parking_entrance", "other_tags": "\"access\"=>\"private\"" }, "geometry": { "type": "Point", "coordinates": [ -1.5436354, 53.7950447 ] } },
	{ "type": "Feature", "properties": { "osm_id": "4633465141", "amenity": "parking_entrance" }, "geometry": { "type": "Point", "coordinates": [ -1.6581112, 53.8781263 ] } },
	{ "type": "Feature", "properties": { "osm_id": "4691454053", "amenity": "parking_entrance" }, "geometry": { "type": "Point", "coordinates": [ -1.5563184, 53.8000344 ] } },
	{ "type": "Feature", "properties": { "osm_id": "4740732717", "amenity": "parking_entrance" }, "geometry": { "type": "Point", "coordinates": [ -1.5566351, 53.7989562 ] } },
	{ "type": "Feature", "properties": { "osm_id": "5469383480", "amenity": "parking_entrance" }, "geometry": { "type": "Point", "coordinates": [ -1.5755355, 53.7748198 ] } },
	{ "type": "Feature", "properties": { "osm_id": "6218913002", "amenity": "parking_entrance" }, "geometry": { "type": "Point", "coordinates": [ -1.4556723, 53.8052124 ] } },
	{ "type": "Feature", "properties": { "osm_id": "6236898806", "amenity": "parking_entrance" }, "geometry": { "type": "Point", "coordinates": [ -1.5529611, 53.7968765 ] } },
	{ "type": "Feature", "properties": { "osm_id": "6307169493", "amenity": "parking_entrance" }, "geometry": { "type": "Point", "coordinates": [ -1.5549491, 53.7969865 ] } },
	{ "type": "Feature", "properties": { "osm_id": "6361378488", "amenity": "parking_entrance" }, "geometry": { "type": "Point", "coordinates": [ -1.554394, 53.798238 ] } },
	{ "type": "Feature", "properties": { "osm_id": "6387478674", "amenity": "parking_entrance", "other_tags": "\"exit\"=>\"yes\",\"access\"=>\"yes\",\"entrance\"=>\"yes\"" }, "geometry": { "type": "Point", "coordinates": [ -1.5449891, 53.7984353 ] } },
	{ "type": "Feature", "properties": { "osm_id": "6387478678", "amenity": "parking_entrance", "other_tags": "\"exit\"=>\"yes\",\"access\"=>\"yes\",\"entrance\"=>\"yes\"" }, "geometry": { "type": "Point", "coordinates": [ -1.5458993, 53.7980984 ] } },
	{ "type": "Feature", "properties": { "osm_id": "6387478682", "amenity": "parking_entrance", "other_tags": "\"exit\"=>\"yes\",\"access\"=>\"yes\",\"entrance\"=>\"yes\"" }, "geometry": { "type": "Point", "coordinates": [ -1.5463205, 53.7980235 ] } },
	{ "type": "Feature", "properties": { "osm_id": "6389711992", "amenity": "parking_entrance", "other_tags": "\"access\"=>\"yes\",\"exit\"=>\"yes\",\"parking\"=>\"underground\"" }, "geometry": { "type": "Point", "coordinates": [ -1.5463306, 53.8003036 ] } },
	{ "type": "Feature", "properties": { "osm_id": "6389711993", "amenity": "parking_entrance", "other_tags": "\"access\"=>\"yes\",\"entrance\"=>\"yes\",\"parking\"=>\"underground\"" }, "geometry": { "type": "Point", "coordinates": [ -1.5463074, 53.8003026 ] } },
	{ "type": "Feature", "properties": { "osm_id": "6488022069", "amenity": "parking_entrance", "other_tags": "\"access\"=>\"customers\"" }, "geometry": { "type": "Point", "coordinates": [ -1.4539649, 53.8091305 ] } },
	{ "type": "Feature", "properties": { "osm_id": "6584937084", "amenity": "parking_entrance" }, "geometry": { "type": "Point", "coordinates": [ -1.5366937, 53.7983287 ] } },
	{ "type": "Feature", "properties": { "osm_id": "6590032299", "amenity": "parking_entrance" }, "geometry": { "type": "Point", "coordinates": [ -1.544965, 53.7942858 ] } },
	{ "type": "Feature", "properties": { "osm_id": "6590032300", "amenity": "parking_entrance" }, "geometry": { "type": "Point", "coordinates": [ -1.5450102, 53.794266 ] } },
	{ "type": "Feature", "properties": { "osm_id": "6653522246", "amenity": "parking_entrance" }, "geometry": { "type": "Point", "coordinates": [ -1.5497757, 53.7969061 ] } },
	{ "type": "Feature", "properties": { "osm_id": "6659306168", "amenity": "parking_entrance", "other_tags": "\"access\"=>\"private\"" }, "geometry": { "type": "Point", "coordinates": [ -1.5531164, 53.795741 ] } },
	{ "type": "Feature", "properties": { "osm_id": "6659333164", "amenity": "parking_entrance", "other_tags": "\"access\"=>\"private\"" }, "geometry": { "type": "Point", "coordinates": [ -1.5521006, 53.7958574 ] } },
	{ "type": "Feature", "properties": { "osm_id": "6659333165", "amenity": "parking_entrance", "other_tags": "\"access\"=>\"private\"" }, "geometry": { "type": "Point", "coordinates": [ -1.5519856, 53.79631 ] } },
	{ "type": "Feature", "properties": { "osm_id": "6935272499", "amenity": "parking_entrance" }, "geometry": { "type": "Point", "coordinates": [ -1.5527496, 53.800762 ] } },
	{ "type": "Feature", "properties": { "osm_id": "7105722498", "amenity": "parking_entrance", "other_tags": "\"access\"=>\"no\"" }, "geometry": { "type": "Point", "coordinates": [ -1.5511882, 53.7969331 ] } },
	{ "type": "Feature", "properties": { "osm_id": "7105722503", "amenity": "parking_entrance", "other_tags": "\"access\"=>\"no\"" }, "geometry": { "type": "Point", "coordinates": [ -1.551002, 53.797387 ] } },
	{ "type": "Feature", "properties": { "osm_id": "7105722505", "amenity": "parking_entrance", "other_tags": "\"access\"=>\"no\"" }, "geometry": { "type": "Point", "coordinates": [ -1.550804, 53.7973724 ] } },
	{ "type": "Feature", "properties": { "osm_id": "7176358843", "amenity": "parking_entrance" }, "geometry": { "type": "Point", "coordinates": [ -1.532104, 53.7937881 ] } },
	{ "type": "Feature", "properties": { "osm_id": "7251436998", "amenity": "parking_entrance", "other_tags": "\"access\"=>\"yes\",\"addr:city\"=>\"Leeds\",\"addr:postcode\"=>\"LS1 4BY\",\"addr:street\"=>\"Princes Square\",\"level\"=>\"G\",\"parking\"=>\"multi-storey\"" }, "geometry": { "type": "Point", "coordinates": [ -1.5494086, 53.7951271 ] } },
	{ "type": "Feature", "properties": { "osm_id": "7603485962", "amenity": "parking_entrance" }, "geometry": { "type": "Point", "coordinates": [ -1.3874179, 53.9272356 ] } },
	{ "type": "Feature", "properties": { "osm_id": "7780884361", "amenity": "parking_entrance" }, "geometry": { "type": "Point", "coordinates": [ -1.4618009, 53.8285166 ] } },
	{ "type": "Feature", "properties": { "osm_id": "7780884366", "amenity": "parking_entrance" }, "geometry": { "type": "Point", "coordinates": [ -1.4615661, 53.8286209 ] } },
	{ "type": "Feature", "properties": { "osm_id": "7972051980", "amenity": "parking_entrance" }, "geometry": { "type": "Point", "coordinates": [ -1.5444486, 53.7989461 ] } },
	{ "type": "Feature", "properties": { "osm_id": "7972051982", "amenity": "parking_entrance" }, "geometry": { "type": "Point", "coordinates": [ -1.5444959, 53.7984847 ] } },
	{ "type": "Feature", "properties": { "osm_id": "7972109237", "amenity": "parking_entrance" }, "geometry": { "type": "Point", "coordinates": [ -1.5366545, 53.8010203 ] } },
	{ "type": "Feature", "properties": { "osm_id": "7972109240", "amenity": "parking_entrance" }, "geometry": { "type": "Point", "coordinates": [ -1.5365727, 53.8011639 ] } },
	{ "type": "Feature", "properties": { "osm_id": "7972109246", "amenity": "parking_entrance" }, "geometry": { "type": "Point", "coordinates": [ -1.537724, 53.8014098 ] } },
	{ "type": "Feature", "properties": { "osm_id": "8158466898", "amenity": "parking_entrance" }, "geometry": { "type": "Point", "coordinates": [ -1.5572493, 53.7992183 ] } },
	{ "type": "Feature", "properties": { "osm_id": "8173314312", "amenity": "parking_entrance", "other_tags": "\"level\"=>\"0\",\"parking\"=>\"underground\"" }, "geometry": { "type": "Point", "coordinates": [ -1.5376223, 53.7933129 ] } },
	{ "type": "Feature", "properties": { "osm_id": "8176275035", "amenity": "parking_entrance", "other_tags": "\"access\"=>\"private\",\"parking\"=>\"multi-storey\"" }, "geometry": { "type": "Point", "coordinates": [ -1.543512, 53.7920671 ] } },
	{ "type": "Feature", "properties": { "osm_id": "8326375654", "amenity": "parking_entrance" }, "geometry": { "type": "Point", "coordinates": [ -1.5345207, 53.7918867 ] } },
	{ "type": "Feature", "properties": { "osm_id": "8326375660", "amenity": "parking_entrance" }, "geometry": { "type": "Point", "coordinates": [ -1.5346069, 53.7925286 ] } },
	{ "type": "Feature", "properties": { "osm_id": "8326375685", "amenity": "parking_entrance" }, "geometry": { "type": "Point", "coordinates": [ -1.5359608, 53.7932207 ] } }
]
}
