{
"type": "FeatureCollection",
"crs": { "type": "name", "properties": { "name": "urn:ogc:def:crs:OGC:1.3:CRS84" } },
"features": [
	{ "type": "Feature", "properties": { "osm_id": "304990749", "amenity": "parking_entrance" }, "geometry": { "type": "Point", "coordinates": [ -1.5520243, 53.8037074 ] } },
	{ "type": "Feature", "properties": { "osm_id": "317020516", "name": "Calarence Dock Car Park", "amenity": "parking_entrance", "other_tags": "\"fee\"=>\"no\",\"lit\"=>\"yes\",\"access\"=>\"yes\",\"covered\"=>\"yes\",\"parking\"=>\"multi-storey\",\"surface\"=>\"concrete\",\"smoothness\"=>\"good\"" }, "geometry": { "type": "Point", "coordinates": [ -1.5302366, 53.7908486 ] } },
	{ "type": "Feature", "properties": { "osm_id": "317440799", "amenity": "parking_entrance" }, "geometry": { "type": "Point", "coordinates": [ -1.5557833, 53.7978034 ] } },
	{ "type": "Feature", "properties": { "osm_id": "324323922", "amenity": "parking_entrance" }, "geometry": { "type": "Point", "coordinates": [ -1.7866265, 53.645964 ] } },
	{ "type": "Feature", "properties": { "osm_id": "330053622", "amenity": "parking_entrance" }, "geometry": { "type": "Point", "coordinates": [ -1.786381, 53.6459558 ] } },
	{ "type": "Feature", "properties": { "osm_id": "664210175", "amenity": "parking_entrance" }, "geometry": { "type": "Point", "coordinates": [ -1.5469921, 53.805398 ] } },
	{ "type": "Feature", "properties": { "osm_id": "664210227", "amenity": "parking_entrance" }, "geometry": { "type": "Point", "coordinates": [ -1.5468672, 53.8043328 ] } },
	{ "type": "Feature", "properties": { "osm_id": "921265775", "amenity": "parking_entrance" }, "geometry": { "type": "Point", "coordinates": [ -1.5585609, 53.7962684 ] } },
	{ "type": "Feature", "properties": { "osm_id": "1572776803", "amenity": "parking_entrance" }, "geometry": { "type": "Point", "coordinates": [ -1.505969, 53.6838632 ] } },
	{ "type": "Feature", "properties": { "osm_id": "1572776815", "amenity": "parking_entrance" }, "geometry": { "type": "Point", "coordinates": [ -1.5060413, 53.6839519 ] } },
	{ "type": "Feature", "properties": { "osm_id": "1676360798", "amenity": "parking_entrance" }, "geometry": { "type": "Point", "coordinates": [ -1.5459422, 53.7942346 ] } },
	{ "type": "Feature", "properties": { "osm_id": "1739730921", "amenity": "parking_entrance" }, "geometry": { "type": "Point", "coordinates": [ -1.5602143, 53.7934757 ] } },
	{ "type": "Feature", "properties": { "osm_id": "2091633352", "amenity": "parking_entrance", "other_tags": "\"layer\"=>\"-1\"" }, "geometry": { "type": "Point", "coordinates": [ -1.3832442, 53.7971765 ] } },
	{ "type": "Feature", "properties": { "osm_id": "2134260432", "amenity": "parking_entrance" }, "geometry": { "type": "Point", "coordinates": [ -1.5325134, 53.7939728 ] } },
	{ "type": "Feature", "properties": { "osm_id": "2142650177", "amenity": "parking_entrance" }, "geometry": { "type": "Point", "coordinates": [ -1.5442414, 53.7949701 ] } },
	{ "type": "Feature", "properties": { "osm_id": "2389222684", "amenity": "parking_entrance", "other_tags": "\"layer\"=>\"-1\"" }, "geometry": { "type": "Point", "coordinates": [ -1.5563555, 53.7962512 ] } },
	{ "type": "Feature", "properties": { "osm_id": "2679318365", "amenity": "parking_entrance" }, "geometry": { "type": "Point", "coordinates": [ -1.7844393, 53.6508012 ] } },
	{ "type": "Feature", "properties": { "osm_id": "2780510094", "amenity": "parking_entrance" }, "geometry": { "type": "Point", "coordinates": [ -1.8561896, 53.7227694 ] } },
	{ "type": "Feature", "properties": { "osm_id": "2780510245", "amenity": "parking_entrance" }, "geometry": { "type": "Point", "coordinates": [ -1.8565671, 53.7239736 ] } },
	{ "type": "Feature", "properties": { "osm_id": "3043472125", "amenity": "parking_entrance" }, "geometry": { "type": "Point", "coordinates": [ -1.541398, 53.8048874 ] } },
	{ "type": "Feature", "properties": { "osm_id": "3050169753", "amenity": "parking_entrance" }, "geometry": { "type": "Point", "coordinates": [ -1.5443845, 53.7949685 ] } },
	{ "type": "Feature", "properties": { "osm_id": "3291173097", "amenity": "parking_entrance" }, "geometry": { "type": "Point", "coordinates": [ -1.5570908, 53.7981645 ] } },
	{ "type": "Feature", "properties": { "osm_id": "3393775170", "amenity": "parking_entrance" }, "geometry": { "type": "Point", "coordinates": [ -1.5472606, 53.802942 ] } },
	{ "type": "Feature", "properties": { "osm_id": "3393775171", "amenity": "parking_entrance" }, "geometry": { "type": "Point", "coordinates": [ -1.5472004, 53.8029629 ] } },
	{ "type": "Feature", "properties": { "osm_id": "3393785330", "amenity": "parking_entrance" }, "geometry": { "type": "Point", "coordinates": [ -1.5476647, 53.8020677 ] } },
	{ "type": "Feature", "properties": { "osm_id": "3417491948", "amenity": "parking_entrance" }, "geometry": { "type": "Point", "coordinates": [ -1.5509216, 53.7954971 ] } },
	{ "type": "Feature", "properties": { "osm_id": "3697759480", "name": "Sainsbury's Car Park", "amenity": "parking_entrance" }, "geometry": { "type": "Point", "coordinates": [ -1.7860099, 53.6459919 ] } },
	{ "type": "Feature", "properties": { "osm_id": "3784542671", "amenity": "parking_entrance" }, "geometry": { "type": "Point", "coordinates": [ -1.5556914, 53.7976597 ] } },
	{ "type": "Feature", "properties": { "osm_id": "3784990264", "amenity": "parking_entrance" }, "geometry": { "type": "Point", "coordinates": [ -1.5553684, 53.7976687 ] } },
	{ "type": "Feature", "properties": { "osm_id": "3784990267", "amenity": "parking_entrance" }, "geometry": { "type": "Point", "coordinates": [ -1.5570572, 53.798127 ] } },
	{ "type": "Feature", "properties": { "osm_id": "3820933004", "amenity": "parking_entrance" }, "geometry": { "type": "Point", "coordinates": [ -1.7817139, 53.6506694 ] } },
	{ "type": "Feature", "properties": { "osm_id": "3820933005", "amenity": "parking_entrance" }, "geometry": { "type": "Point", "coordinates": [ -1.7818206, 53.6506605 ] } },
	{ "type": "Feature", "properties": { "osm_id": "3872967601", "amenity": "parking_entrance" }, "geometry": { "type": "Point", "coordinates": [ -1.5488949, 53.7969726 ] } },
	{ "type": "Feature", "properties": { "osm_id": "3936133105", "amenity": "parking_entrance", "other_tags": "\"lit\"=>\"yes\",\"covered\"=>\"no\"" }, "geometry": { "type": "Point", "coordinates": [ -1.7851954, 53.6516947 ] } },
	{ "type": "Feature", "properties": { "osm_id": "3936133107", "amenity": "parking_entrance" }, "geometry": { "type": "Point", "coordinates": [ -1.7853567, 53.6517654 ] } },
	{ "type": "Feature", "properties": { "osm_id": "4100216481", "amenity": "parking_entrance" }, "geometry": { "type": "Point", "coordinates": [ -1.5464688, 53.804408 ] } },
	{ "type": "Feature", "properties": { "osm_id": "4457813298", "amenity": "parking_entrance" }, "geometry": { "type": "Point", "coordinates": [ -1.5375949, 53.7966947 ] } },
	{ "type": "Feature", "properties": { "osm_id": "4457813300", "amenity": "parking_entrance" }, "geometry": { "type": "Point", "coordinates": [ -1.5375991, 53.7966577 ] } },
	{ "type": "Feature", "properties": { "osm_id": "4457813302", "amenity": "parking_entrance", "other_tags": "\"parking\"=>\"multi-storey\"" }, "geometry": { "type": "Point", "coordinates": [ -1.5368311, 53.7966012 ] } },
	{ "type": "Feature", "properties": { "osm_id": "4457813304", "amenity": "parking_entrance", "other_tags": "\"parking\"=>\"multi-storey\"" }, "geometry": { "type": "Point", "coordinates": [ -1.5367425, 53.7965987 ] } },
	{ "type": "Feature", "properties": { "osm_id": "4466919266", "amenity": "parking_entrance" }, "geometry": { "type": "Point", "coordinates": [ -1.7890893, 53.8375895 ] } },
	{ "type": "Feature", "properties": { "osm_id": "4467370433", "amenity": "parking_entrance" }, "geometry": { "type": "Point", "coordinates": [ -1.624653, 53.8851376 ] } },
	{ "type": "Feature", "properties": { "osm_id": "4598882278", "amenity": "parking_entrance", "other_tags": "\"access\"=>\"private\"" }, "geometry": { "type": "Point", "coordinates": [ -1.5436354, 53.7950447 ] } },
	{ "type": "Feature", "properties": { "osm_id": "4633465141", "amenity": "parking_entrance" }, "geometry": { "type": "Point", "coordinates": [ -1.6581112, 53.8781263 ] } },
	{ "type": "Feature", "properties": { "osm_id": "4691454053", "amenity": "parking_entrance" }, "geometry": { "type": "Point", "coordinates": [ -1.5563184, 53.8000344 ] } },
	{ "type": "Feature", "properties": { "osm_id": "4740732717", "amenity": "parking_entrance" }, "geometry": { "type": "Point", "coordinates": [ -1.5566351, 53.7989562 ] } },
	{ "type": "Feature", "properties": { "osm_id": "5469383480", "amenity": "parking_entrance" }, "geometry": { "type": "Point", "coordinates": [ -1.5755355, 53.7748198 ] } },
	{ "type": "Feature", "properties": { "osm_id": "6218913002", "amenity": "parking_entrance" }, "geometry": { "type": "Point", "coordinates": [ -1.4556723, 53.8052124 ] } },
	{ "type": "Feature", "properties": { "osm_id": "6236898806", "amenity": "parking_entrance" }, "geometry": { "type": "Point", "coordinates": [ -1.5529611, 53.7968765 ] } },
	{ "type": "Feature", "properties": { "osm_id": "6307169493", "amenity": "parking_entrance" }, "geometry": { "type": "Point", "coordinates": [ -1.5549491, 53.7969865 ] } },
	{ "type": "Feature", "properties": { "osm_id": "6361378488", "amenity": "parking_entrance" }, "geometry": { "type": "Point", "coordinates": [ -1.554394, 53.798238 ] } },
	{ "type": "Feature", "properties": { "osm_id": "6387478674", "amenity": "parking_entrance", "other_tags": "\"access\"=>\"yes\",\"entrance\"=>\"yes\",\"exit\"=>\"yes\",\"parking\"=>\"multi-storey\"" }, "geometry": { "type": "Point", "coordinates": [ -1.5449891, 53.7984353 ] } },
	{ "type": "Feature", "properties": { "osm_id": "6387478678", "amenity": "parking_entrance", "other_tags": "\"exit\"=>\"yes\",\"access\"=>\"yes\",\"entrance\"=>\"yes\"" }, "geometry": { "type": "Point", "coordinates": [ -1.5458993, 53.7980984 ] } },
	{ "type": "Feature", "properties": { "osm_id": "6387478682", "amenity": "parking_entrance", "other_tags": "\"exit\"=>\"yes\",\"access\"=>\"yes\",\"entrance\"=>\"yes\"" }, "geometry": { "type": "Point", "coordinates": [ -1.5463205, 53.7980235 ] } },
	{ "type": "Feature", "properties": { "osm_id": "6389711992", "amenity": "parking_entrance", "other_tags": "\"access\"=>\"yes\",\"exit\"=>\"yes\",\"parking\"=>\"underground\"" }, "geometry": { "type": "Point", "coordinates": [ -1.5463306, 53.8003036 ] } },
	{ "type": "Feature", "properties": { "osm_id": "6389711993", "amenity": "parking_entrance", "other_tags": "\"access\"=>\"yes\",\"entrance\"=>\"yes\",\"parking\"=>\"underground\"" }, "geometry": { "type": "Point", "coordinates": [ -1.5463074, 53.8003026 ] } },
	{ "type": "Feature", "properties": { "osm_id": "6488022069", "amenity": "parking_entrance", "other_tags": "\"access\"=>\"customers\"" }, "geometry": { "type": "Point", "coordinates": [ -1.4539649, 53.8091305 ] } },
	{ "type": "Feature", "properties": { "osm_id": "6584937084", "amenity": "parking_entrance" }, "geometry": { "type": "Point", "coordinates": [ -1.5366937, 53.7983287 ] } },
	{ "type": "Feature", "properties": { "osm_id": "6590032299", "amenity": "parking_entrance" }, "geometry": { "type": "Point", "coordinates": [ -1.544965, 53.7942858 ] } },
	{ "type": "Feature", "properties": { "osm_id": "6590032300", "amenity": "parking_entrance" }, "geometry": { "type": "Point", "coordinates": [ -1.5450102, 53.794266 ] } },
	{ "type": "Feature", "properties": { "osm_id": "6653522246", "amenity": "parking_entrance" }, "geometry": { "type": "Point", "coordinates": [ -1.5497757, 53.7969061 ] } },
	{ "type": "Feature", "properties": { "osm_id": "6659306168", "amenity": "parking_entrance", "other_tags": "\"access\"=>\"private\"" }, "geometry": { "type": "Point", "coordinates": [ -1.5533047, 53.7957522 ] } },
	{ "type": "Feature", "properties": { "osm_id": "6659333164", "amenity": "parking_entrance", "other_tags": "\"access\"=>\"private\"" }, "geometry": { "type": "Point", "coordinates": [ -1.5521006, 53.7958574 ] } },
	{ "type": "Feature", "properties": { "osm_id": "6659333165", "amenity": "parking_entrance", "other_tags": "\"access\"=>\"private\"" }, "geometry": { "type": "Point", "coordinates": [ -1.5519856, 53.79631 ] } },
	{ "type": "Feature", "properties": { "osm_id": "6853418606", "amenity": "parking_entrance", "other_tags": "\"level\"=>\"-1\"" }, "geometry": { "type": "Point", "coordinates": [ -1.4937303, 53.6858109 ] } },
	{ "type": "Feature", "properties": { "osm_id": "6935272499", "amenity": "parking_entrance" }, "geometry": { "type": "Point", "coordinates": [ -1.5527496, 53.800762 ] } },
	{ "type": "Feature", "properties": { "osm_id": "7105722498", "amenity": "parking_entrance", "other_tags": "\"access\"=>\"no\"" }, "geometry": { "type": "Point", "coordinates": [ -1.5511882, 53.7969331 ] } },
	{ "type": "Feature", "properties": { "osm_id": "7105722503", "amenity": "parking_entrance", "other_tags": "\"access\"=>\"no\"" }, "geometry": { "type": "Point", "coordinates": [ -1.551002, 53.797387 ] } },
	{ "type": "Feature", "properties": { "osm_id": "7105722505", "amenity": "parking_entrance", "other_tags": "\"access\"=>\"no\"" }, "geometry": { "type": "Point", "coordinates": [ -1.550804, 53.7973724 ] } },
	{ "type": "Feature", "properties": { "osm_id": "7176358843", "amenity": "parking_entrance" }, "geometry": { "type": "Point", "coordinates": [ -1.532104, 53.7937881 ] } },
	{ "type": "Feature", "properties": { "osm_id": "7251436998", "amenity": "parking_entrance", "other_tags": "\"access\"=>\"yes\",\"addr:city\"=>\"Leeds\",\"addr:postcode\"=>\"LS1 4BY\",\"addr:street\"=>\"Princes Square\",\"level\"=>\"G\",\"parking\"=>\"multi-storey\"" }, "geometry": { "type": "Point", "coordinates": [ -1.5494086, 53.7951271 ] } },
	{ "type": "Feature", "properties": { "osm_id": "7458901928", "amenity": "parking_entrance" }, "geometry": { "type": "Point", "coordinates": [ -1.4800732, 53.7257117 ] } },
	{ "type": "Feature", "properties": { "osm_id": "7458901936", "amenity": "parking_entrance" }, "geometry": { "type": "Point", "coordinates": [ -1.4799787, 53.7254245 ] } },
	{ "type": "Feature", "properties": { "osm_id": "7458901944", "amenity": "parking_entrance" }, "geometry": { "type": "Point", "coordinates": [ -1.4805387, 53.7253535 ] } },
	{ "type": "Feature", "properties": { "osm_id": "7458901951", "amenity": "parking_entrance" }, "geometry": { "type": "Point", "coordinates": [ -1.4806252, 53.725393 ] } },
	{ "type": "Feature", "properties": { "osm_id": "7458901956", "amenity": "parking_entrance" }, "geometry": { "type": "Point", "coordinates": [ -1.4808482, 53.7253579 ] } },
	{ "type": "Feature", "properties": { "osm_id": "7458901961", "amenity": "parking_entrance" }, "geometry": { "type": "Point", "coordinates": [ -1.4810628, 53.7252074 ] } },
	{ "type": "Feature", "properties": { "osm_id": "7458901963", "amenity": "parking_entrance" }, "geometry": { "type": "Point", "coordinates": [ -1.4809383, 53.7250557 ] } },
	{ "type": "Feature", "properties": { "osm_id": "7459052973", "amenity": "parking_entrance" }, "geometry": { "type": "Point", "coordinates": [ -1.4797979, 53.7246717 ] } },
	{ "type": "Feature", "properties": { "osm_id": "7459052982", "amenity": "parking_entrance" }, "geometry": { "type": "Point", "coordinates": [ -1.4800167, 53.7248604 ] } },
	{ "type": "Feature", "properties": { "osm_id": "7528713565", "name": "Frickley Country Park", "amenity": "parking_entrance" }, "geometry": { "type": "Point", "coordinates": [ -1.2993833, 53.5835544 ] } },
	{ "type": "Feature", "properties": { "osm_id": "7780884361", "amenity": "parking_entrance" }, "geometry": { "type": "Point", "coordinates": [ -1.4618009, 53.8285166 ] } },
	{ "type": "Feature", "properties": { "osm_id": "7780884366", "amenity": "parking_entrance" }, "geometry": { "type": "Point", "coordinates": [ -1.4615661, 53.8286209 ] } },
	{ "type": "Feature", "properties": { "osm_id": "7972051980", "amenity": "parking_entrance" }, "geometry": { "type": "Point", "coordinates": [ -1.5444486, 53.7989461 ] } },
	{ "type": "Feature", "properties": { "osm_id": "7972051982", "amenity": "parking_entrance" }, "geometry": { "type": "Point", "coordinates": [ -1.5444959, 53.7984847 ] } },
	{ "type": "Feature", "properties": { "osm_id": "7972109237", "amenity": "parking_entrance" }, "geometry": { "type": "Point", "coordinates": [ -1.5366545, 53.8010203 ] } },
	{ "type": "Feature", "properties": { "osm_id": "7972109240", "amenity": "parking_entrance" }, "geometry": { "type": "Point", "coordinates": [ -1.5365727, 53.8011639 ] } },
	{ "type": "Feature", "properties": { "osm_id": "7972109246", "amenity": "parking_entrance" }, "geometry": { "type": "Point", "coordinates": [ -1.537724, 53.8014098 ] } },
	{ "type": "Feature", "properties": { "osm_id": "8121622870", "amenity": "parking_entrance" }, "geometry": { "type": "Point", "coordinates": [ -1.7507359, 53.7916492 ] } },
	{ "type": "Feature", "properties": { "osm_id": "8121622887", "amenity": "parking_entrance" }, "geometry": { "type": "Point", "coordinates": [ -1.750965, 53.7917719 ] } },
	{ "type": "Feature", "properties": { "osm_id": "8121647946", "amenity": "parking_entrance" }, "geometry": { "type": "Point", "coordinates": [ -1.7510259, 53.791476 ] } },
	{ "type": "Feature", "properties": { "osm_id": "8121647955", "amenity": "parking_entrance" }, "geometry": { "type": "Point", "coordinates": [ -1.7521742, 53.7918352 ] } },
	{ "type": "Feature", "properties": { "osm_id": "8158466898", "amenity": "parking_entrance" }, "geometry": { "type": "Point", "coordinates": [ -1.5572493, 53.7992183 ] } },
	{ "type": "Feature", "properties": { "osm_id": "8173314312", "amenity": "parking_entrance", "other_tags": "\"level\"=>\"0\",\"parking\"=>\"underground\"" }, "geometry": { "type": "Point", "coordinates": [ -1.5376223, 53.7933129 ] } },
	{ "type": "Feature", "properties": { "osm_id": "8176275035", "amenity": "parking_entrance", "other_tags": "\"access\"=>\"private\",\"parking\"=>\"multi-storey\"" }, "geometry": { "type": "Point", "coordinates": [ -1.543512, 53.7920671 ] } },
	{ "type": "Feature", "properties": { "osm_id": "8308128671", "amenity": "parking_entrance" }, "geometry": { "type": "Point", "coordinates": [ -1.4951752, 53.681631 ] } },
	{ "type": "Feature", "properties": { "osm_id": "8308128679", "amenity": "parking_entrance" }, "geometry": { "type": "Point", "coordinates": [ -1.4954712, 53.6814358 ] } },
	{ "type": "Feature", "properties": { "osm_id": "8308128686", "amenity": "parking_entrance" }, "geometry": { "type": "Point", "coordinates": [ -1.4987752, 53.6820075 ] } },
	{ "type": "Feature", "properties": { "osm_id": "8326375654", "amenity": "parking_entrance" }, "geometry": { "type": "Point", "coordinates": [ -1.5345207, 53.7918867 ] } },
	{ "type": "Feature", "properties": { "osm_id": "8326375660", "amenity": "parking_entrance" }, "geometry": { "type": "Point", "coordinates": [ -1.5346069, 53.7925286 ] } },
	{ "type": "Feature", "properties": { "osm_id": "8326375685", "amenity": "parking_entrance" }, "geometry": { "type": "Point", "coordinates": [ -1.5359608, 53.7932207 ] } },
	{ "type": "Feature", "properties": { "osm_id": "8482012968", "amenity": "parking_entrance", "other_tags": "\"parking\"=>\"underground\"" }, "geometry": { "type": "Point", "coordinates": [ -1.5505878, 53.7887558 ] } },
	{ "type": "Feature", "properties": { "osm_id": "8642410634", "amenity": "parking_entrance" }, "geometry": { "type": "Point", "coordinates": [ -1.4947517, 53.6855091 ] } },
	{ "type": "Feature", "properties": { "osm_id": "8642410635", "amenity": "parking_entrance" }, "geometry": { "type": "Point", "coordinates": [ -1.4947459, 53.6855237 ] } },
	{ "type": "Feature", "properties": { "osm_id": "8666681208", "amenity": "parking_entrance" }, "geometry": { "type": "Point", "coordinates": [ -1.5638373, 53.8018335 ] } },
	{ "type": "Feature", "properties": { "osm_id": "8691289861", "amenity": "parking_entrance" }, "geometry": { "type": "Point", "coordinates": [ -1.4483255, 53.8077721 ] } },
	{ "type": "Feature", "properties": { "osm_id": "8691289862", "amenity": "parking_entrance" }, "geometry": { "type": "Point", "coordinates": [ -1.4480542, 53.808018 ] } },
	{ "type": "Feature", "properties": { "osm_id": "8717720582", "amenity": "parking_entrance" }, "geometry": { "type": "Point", "coordinates": [ -1.7781153, 53.6449131 ] } },
	{ "type": "Feature", "properties": { "osm_id": "8756488240", "amenity": "parking_entrance" }, "geometry": { "type": "Point", "coordinates": [ -1.479241, 53.8120237 ] } },
	{ "type": "Feature", "properties": { "osm_id": "8764984663", "amenity": "parking_entrance", "barrier": "lift_gate" }, "geometry": { "type": "Point", "coordinates": [ -1.5511825, 53.7934726 ] } },
	{ "type": "Feature", "properties": { "osm_id": "8764984664", "amenity": "parking_entrance", "barrier": "lift_gate" }, "geometry": { "type": "Point", "coordinates": [ -1.5510482, 53.7934947 ] } },
	{ "type": "Feature", "properties": { "osm_id": "8764984665", "amenity": "parking_entrance", "barrier": "lift_gate" }, "geometry": { "type": "Point", "coordinates": [ -1.5506247, 53.7935411 ] } },
	{ "type": "Feature", "properties": { "osm_id": "8764984666", "amenity": "parking_entrance", "barrier": "lift_gate" }, "geometry": { "type": "Point", "coordinates": [ -1.5507581, 53.7935274 ] } },
	{ "type": "Feature", "properties": { "osm_id": "8764984777", "amenity": "parking_entrance", "barrier": "lift_gate" }, "geometry": { "type": "Point", "coordinates": [ -1.550892, 53.7935142 ] } },
	{ "type": "Feature", "properties": { "osm_id": "8764984877", "amenity": "parking_entrance", "barrier": "gate" }, "geometry": { "type": "Point", "coordinates": [ -1.5512119, 53.7933991 ] } },
	{ "type": "Feature", "properties": { "osm_id": "8829693168", "amenity": "parking_entrance" }, "geometry": { "type": "Point", "coordinates": [ -1.5462413, 53.8004637 ] } },
	{ "type": "Feature", "properties": { "osm_id": "8829695317", "amenity": "parking_entrance" }, "geometry": { "type": "Point", "coordinates": [ -1.5454027, 53.8021012 ] } }
]
}
