{
"type": "FeatureCollection",
"crs": { "type": "name", "properties": { "name": "urn:ogc:def:crs:OGC:1.3:CRS84" } },
"features": [
	{ "type": "Feature", "properties": { "osm_id": "27475938", "amenity": "atm" }, "geometry": { "type": "Point", "coordinates": [ -1.3838043, 53.9290919 ] } },
	{ "type": "Feature", "properties": { "osm_id": "42405868", "amenity": "atm" }, "geometry": { "type": "Point", "coordinates": [ -1.6212513, 53.8050358 ] } },
	{ "type": "Feature", "properties": { "osm_id": "48930597", "amenity": "atm" }, "geometry": { "type": "Point", "coordinates": [ -1.5479448, 53.7954438 ] } },
	{ "type": "Feature", "properties": { "osm_id": "50918565", "amenity": "atm" }, "geometry": { "type": "Point", "coordinates": [ -1.6275343, 53.811908 ] } },
	{ "type": "Feature", "properties": { "osm_id": "51401467", "amenity": "atm" }, "geometry": { "type": "Point", "coordinates": [ -1.5892357, 53.7982807 ] } },
	{ "type": "Feature", "properties": { "osm_id": "59815224", "amenity": "atm" }, "geometry": { "type": "Point", "coordinates": [ -1.5767509, 53.8122988 ] } },
	{ "type": "Feature", "properties": { "osm_id": "244325312", "amenity": "atm", "other_tags": "\"operator\"=>\"HSBC\"" }, "geometry": { "type": "Point", "coordinates": [ -1.547125, 53.7980265 ] } },
	{ "type": "Feature", "properties": { "osm_id": "244334286", "amenity": "atm" }, "geometry": { "type": "Point", "coordinates": [ -1.544598, 53.7973224 ] } },
	{ "type": "Feature", "properties": { "osm_id": "244334812", "amenity": "atm", "other_tags": "\"operator\"=>\"Santander\"" }, "geometry": { "type": "Point", "coordinates": [ -1.5469522, 53.7983298 ] } },
	{ "type": "Feature", "properties": { "osm_id": "244334951", "amenity": "atm", "other_tags": "\"drive_through\"=>\"no\",\"fee\"=>\"yes\"" }, "geometry": { "type": "Point", "coordinates": [ -1.546512, 53.7997162 ] } },
	{ "type": "Feature", "properties": { "osm_id": "244335543", "amenity": "atm" }, "geometry": { "type": "Point", "coordinates": [ -1.5447392, 53.7995421 ] } },
	{ "type": "Feature", "properties": { "osm_id": "244336226", "amenity": "atm" }, "geometry": { "type": "Point", "coordinates": [ -1.5445705, 53.8002989 ] } },
	{ "type": "Feature", "properties": { "osm_id": "245792129", "amenity": "atm" }, "geometry": { "type": "Point", "coordinates": [ -1.9108165, 53.7092206 ] } },
	{ "type": "Feature", "properties": { "osm_id": "247432049", "amenity": "atm" }, "geometry": { "type": "Point", "coordinates": [ -1.5763181, 53.8201132 ] } },
	{ "type": "Feature", "properties": { "osm_id": "247432051", "amenity": "atm", "other_tags": "\"operator\"=>\"TSB\"" }, "geometry": { "type": "Point", "coordinates": [ -1.5766946, 53.8204141 ] } },
	{ "type": "Feature", "properties": { "osm_id": "249713770", "amenity": "atm" }, "geometry": { "type": "Point", "coordinates": [ -1.5442192, 53.7973799 ] } },
	{ "type": "Feature", "properties": { "osm_id": "250756716", "amenity": "atm" }, "geometry": { "type": "Point", "coordinates": [ -1.5548334, 53.8313101 ] } },
	{ "type": "Feature", "properties": { "osm_id": "265423773", "amenity": "atm" }, "geometry": { "type": "Point", "coordinates": [ -1.6300011, 53.7142988 ] } },
	{ "type": "Feature", "properties": { "osm_id": "289815019", "amenity": "atm" }, "geometry": { "type": "Point", "coordinates": [ -1.6719582, 53.8036345 ] } },
	{ "type": "Feature", "properties": { "osm_id": "289818220", "amenity": "atm", "other_tags": "\"operator\"=>\"RBS\"" }, "geometry": { "type": "Point", "coordinates": [ -1.6020819, 53.8135182 ] } },
	{ "type": "Feature", "properties": { "osm_id": "291601296", "amenity": "atm" }, "geometry": { "type": "Point", "coordinates": [ -1.6284621, 53.8120334 ] } },
	{ "type": "Feature", "properties": { "osm_id": "292238410", "amenity": "atm", "other_tags": "\"cash_in\"=>\"no\",\"drive_through\"=>\"no\",\"operator\"=>\"Yorkshire Bank\"" }, "geometry": { "type": "Point", "coordinates": [ -1.5446349, 53.7779399 ] } },
	{ "type": "Feature", "properties": { "osm_id": "292238582", "amenity": "atm" }, "geometry": { "type": "Point", "coordinates": [ -1.5499484, 53.7709674 ] } },
	{ "type": "Feature", "properties": { "osm_id": "296021089", "amenity": "atm" }, "geometry": { "type": "Point", "coordinates": [ -1.627484, 53.8119386 ] } },
	{ "type": "Feature", "properties": { "osm_id": "297118299", "amenity": "atm" }, "geometry": { "type": "Point", "coordinates": [ -1.6618579, 53.7968662 ] } },
	{ "type": "Feature", "properties": { "osm_id": "297118307", "amenity": "atm" }, "geometry": { "type": "Point", "coordinates": [ -1.662436, 53.7963368 ] } },
	{ "type": "Feature", "properties": { "osm_id": "297118521", "amenity": "atm" }, "geometry": { "type": "Point", "coordinates": [ -1.6365021, 53.8039677 ] } },
	{ "type": "Feature", "properties": { "osm_id": "301724011", "name": "HSBC", "amenity": "atm" }, "geometry": { "type": "Point", "coordinates": [ -1.7567629, 53.7910928 ] } },
	{ "type": "Feature", "properties": { "osm_id": "301736434", "name": "NatWest", "amenity": "atm" }, "geometry": { "type": "Point", "coordinates": [ -1.7471223, 53.7916054 ] } },
	{ "type": "Feature", "properties": { "osm_id": "304322847", "amenity": "atm", "other_tags": "\"fee\"=>\"yes\"" }, "geometry": { "type": "Point", "coordinates": [ -1.6213947, 53.7946365 ] } },
	{ "type": "Feature", "properties": { "osm_id": "304329356", "amenity": "atm" }, "geometry": { "type": "Point", "coordinates": [ -1.6179414, 53.7922385 ] } },
	{ "type": "Feature", "properties": { "osm_id": "304609846", "amenity": "atm" }, "geometry": { "type": "Point", "coordinates": [ -1.62634, 53.8116082 ] } },
	{ "type": "Feature", "properties": { "osm_id": "317087807", "amenity": "atm", "other_tags": "\"fee\"=>\"no\",\"operator\"=>\"Tesco\"" }, "geometry": { "type": "Point", "coordinates": [ -1.5316609, 53.7897853 ] } },
	{ "type": "Feature", "properties": { "osm_id": "317592551", "name": "HSBC", "amenity": "atm" }, "geometry": { "type": "Point", "coordinates": [ -1.754263, 53.7934027 ] } },
	{ "type": "Feature", "properties": { "osm_id": "319429912", "amenity": "atm" }, "geometry": { "type": "Point", "coordinates": [ -1.5688977, 53.8124777 ] } },
	{ "type": "Feature", "properties": { "osm_id": "330089296", "amenity": "atm", "other_tags": "\"operator\"=>\"Lloyds TSB\"" }, "geometry": { "type": "Point", "coordinates": [ -1.5909116, 53.7968846 ] } },
	{ "type": "Feature", "properties": { "osm_id": "330089355", "amenity": "atm", "other_tags": "\"operator\"=>\"Yorkshire Bank\"" }, "geometry": { "type": "Point", "coordinates": [ -1.5887588, 53.7972115 ] } },
	{ "type": "Feature", "properties": { "osm_id": "332329791", "amenity": "atm", "other_tags": "\"operator\"=>\"Halifax\"" }, "geometry": { "type": "Point", "coordinates": [ -1.5780719, 53.8211134 ] } },
	{ "type": "Feature", "properties": { "osm_id": "332477443", "amenity": "atm" }, "geometry": { "type": "Point", "coordinates": [ -1.5808781, 53.8203572 ] } },
	{ "type": "Feature", "properties": { "osm_id": "332484031", "amenity": "atm" }, "geometry": { "type": "Point", "coordinates": [ -1.5412083, 53.7873678 ] } },
	{ "type": "Feature", "properties": { "osm_id": "333442552", "amenity": "atm", "other_tags": "\"fee\"=>\"no\",\"operator\"=>\"Post Office\"" }, "geometry": { "type": "Point", "coordinates": [ -1.5386399, 53.796446 ] } },
	{ "type": "Feature", "properties": { "osm_id": "333467225", "amenity": "atm", "other_tags": "\"operator\"=>\"Yorkshire Building Society\"" }, "geometry": { "type": "Point", "coordinates": [ -1.5423515, 53.7961087 ] } },
	{ "type": "Feature", "properties": { "osm_id": "333467228", "amenity": "atm", "other_tags": "\"operator\"=>\"HSBC\"" }, "geometry": { "type": "Point", "coordinates": [ -1.5426083, 53.796226 ] } },
	{ "type": "Feature", "properties": { "osm_id": "333467278", "amenity": "atm" }, "geometry": { "type": "Point", "coordinates": [ -1.542482, 53.7972381 ] } },
	{ "type": "Feature", "properties": { "osm_id": "333467294", "amenity": "atm", "other_tags": "\"operator\"=>\"Alliance & Leicester\"" }, "geometry": { "type": "Point", "coordinates": [ -1.5424231, 53.7976845 ] } },
	{ "type": "Feature", "properties": { "osm_id": "333799029", "amenity": "atm" }, "geometry": { "type": "Point", "coordinates": [ -1.5422569, 53.7990475 ] } },
	{ "type": "Feature", "properties": { "osm_id": "333799057", "amenity": "atm" }, "geometry": { "type": "Point", "coordinates": [ -1.544796, 53.7995484 ] } },
	{ "type": "Feature", "properties": { "osm_id": "333799058", "amenity": "atm" }, "geometry": { "type": "Point", "coordinates": [ -1.5448533, 53.7995557 ] } },
	{ "type": "Feature", "properties": { "osm_id": "334859477", "amenity": "atm", "other_tags": "\"operator\"=>\"HSBC\"" }, "geometry": { "type": "Point", "coordinates": [ -1.6015269, 53.8128764 ] } },
	{ "type": "Feature", "properties": { "osm_id": "334859480", "amenity": "atm", "other_tags": "\"operator\"=>\"HSBC\"" }, "geometry": { "type": "Point", "coordinates": [ -1.6014388, 53.8129244 ] } },
	{ "type": "Feature", "properties": { "osm_id": "334859483", "amenity": "atm", "other_tags": "\"operator\"=>\"Lloyds TSB\"" }, "geometry": { "type": "Point", "coordinates": [ -1.602132, 53.8135015 ] } },
	{ "type": "Feature", "properties": { "osm_id": "339923495", "amenity": "atm", "other_tags": "\"operator\"=>\"HSBC\"" }, "geometry": { "type": "Point", "coordinates": [ -1.5472163, 53.7980294 ] } },
	{ "type": "Feature", "properties": { "osm_id": "339923496", "amenity": "atm", "other_tags": "\"operator\"=>\"NatWest\"" }, "geometry": { "type": "Point", "coordinates": [ -1.5469429, 53.798281 ] } },
	{ "type": "Feature", "properties": { "osm_id": "339923497", "amenity": "atm", "other_tags": "\"operator\"=>\"NatWest\"" }, "geometry": { "type": "Point", "coordinates": [ -1.5469429, 53.7982284 ] } },
	{ "type": "Feature", "properties": { "osm_id": "339923498", "amenity": "atm", "other_tags": "\"operator\"=>\"NatWest\"" }, "geometry": { "type": "Point", "coordinates": [ -1.5469486, 53.7981774 ] } },
	{ "type": "Feature", "properties": { "osm_id": "339923505", "amenity": "atm", "other_tags": "\"operator\"=>\"RBS\"" }, "geometry": { "type": "Point", "coordinates": [ -1.547186, 53.7988921 ] } },
	{ "type": "Feature", "properties": { "osm_id": "342579651", "amenity": "atm", "other_tags": "\"operator\"=>\"Co-Op\"" }, "geometry": { "type": "Point", "coordinates": [ -1.5365373, 53.7963886 ] } },
	{ "type": "Feature", "properties": { "osm_id": "342579669", "amenity": "atm", "other_tags": "\"operator\"=>\"Yorkshire Bank\"" }, "geometry": { "type": "Point", "coordinates": [ -1.5359934, 53.7976765 ] } },
	{ "type": "Feature", "properties": { "osm_id": "342579671", "amenity": "atm", "other_tags": "\"operator\"=>\"HSBC\"" }, "geometry": { "type": "Point", "coordinates": [ -1.5360239, 53.797676 ] } },
	{ "type": "Feature", "properties": { "osm_id": "343131665", "amenity": "atm", "other_tags": "\"operator\"=>\"Yorkshire Bank\"" }, "geometry": { "type": "Point", "coordinates": [ -1.5442817, 53.8018411 ] } },
	{ "type": "Feature", "properties": { "osm_id": "343131666", "amenity": "atm", "other_tags": "\"operator\"=>\"Yorkshire Bank\"" }, "geometry": { "type": "Point", "coordinates": [ -1.5442589, 53.8018075 ] } },
	{ "type": "Feature", "properties": { "osm_id": "343131667", "amenity": "atm", "other_tags": "\"operator\"=>\"Yorkshire Bank\"" }, "geometry": { "type": "Point", "coordinates": [ -1.5423383, 53.8014943 ] } },
	{ "type": "Feature", "properties": { "osm_id": "343857441", "amenity": "atm" }, "geometry": { "type": "Point", "coordinates": [ -1.6719378, 53.8036042 ] } },
	{ "type": "Feature", "properties": { "osm_id": "343857442", "amenity": "atm" }, "geometry": { "type": "Point", "coordinates": [ -1.6719238, 53.8035743 ] } },
	{ "type": "Feature", "properties": { "osm_id": "343862865", "amenity": "atm" }, "geometry": { "type": "Point", "coordinates": [ -1.5562991, 53.8066641 ] } },
	{ "type": "Feature", "properties": { "osm_id": "354946624", "amenity": "atm", "other_tags": "\"operator\"=>\"Sainsburys\",\"toilets:wheelchair\"=>\"no\",\"wheelchair\"=>\"yes\"" }, "geometry": { "type": "Point", "coordinates": [ -1.9042448, 53.8687467 ] } },
	{ "type": "Feature", "properties": { "osm_id": "356005688", "amenity": "atm" }, "geometry": { "type": "Point", "coordinates": [ -1.6422661, 53.6887831 ] } },
	{ "type": "Feature", "properties": { "osm_id": "357744123", "amenity": "atm" }, "geometry": { "type": "Point", "coordinates": [ -1.55316, 53.7983061 ] } },
	{ "type": "Feature", "properties": { "osm_id": "359176089", "amenity": "atm" }, "geometry": { "type": "Point", "coordinates": [ -1.6327703, 53.688638 ] } },
	{ "type": "Feature", "properties": { "osm_id": "364011236", "amenity": "atm", "other_tags": "\"operator\"=>\"Yorkshire Bank\"" }, "geometry": { "type": "Point", "coordinates": [ -1.5738712, 53.7905731 ] } },
	{ "type": "Feature", "properties": { "osm_id": "364150995", "amenity": "atm" }, "geometry": { "type": "Point", "coordinates": [ -1.7147883, 53.7246658 ] } },
	{ "type": "Feature", "properties": { "osm_id": "367033758", "amenity": "atm", "other_tags": "\"operator\"=>\"Sainsburys\",\"wheelchair\"=>\"yes\"" }, "geometry": { "type": "Point", "coordinates": [ -1.7755068, 53.646386 ] } },
	{ "type": "Feature", "properties": { "osm_id": "368341666", "amenity": "atm" }, "geometry": { "type": "Point", "coordinates": [ -1.776876, 53.7041164 ] } },
	{ "type": "Feature", "properties": { "osm_id": "378331491", "amenity": "atm", "other_tags": "\"operator\"=>\"Sainsburys\"" }, "geometry": { "type": "Point", "coordinates": [ -1.62423, 53.6893984 ] } },
	{ "type": "Feature", "properties": { "osm_id": "381130266", "amenity": "atm" }, "geometry": { "type": "Point", "coordinates": [ -1.6025768, 53.7452719 ] } },
	{ "type": "Feature", "properties": { "osm_id": "382568502", "amenity": "atm", "other_tags": "\"operator\"=>\"Barclays Bank PLC\"" }, "geometry": { "type": "Point", "coordinates": [ -1.7732802, 53.805695 ] } },
	{ "type": "Feature", "properties": { "osm_id": "382692549", "amenity": "atm", "other_tags": "\"fee\"=>\"no\",\"operator\"=>\"Post Office\"" }, "geometry": { "type": "Point", "coordinates": [ -1.6712572, 53.8127993 ] } },
	{ "type": "Feature", "properties": { "osm_id": "400962829", "amenity": "atm", "other_tags": "\"operator\"=>\"post_office\"" }, "geometry": { "type": "Point", "coordinates": [ -1.5542131, 53.7776438 ] } },
	{ "type": "Feature", "properties": { "osm_id": "413272740", "amenity": "atm" }, "geometry": { "type": "Point", "coordinates": [ -1.6631127, 53.7564349 ] } },
	{ "type": "Feature", "properties": { "osm_id": "413408925", "amenity": "atm" }, "geometry": { "type": "Point", "coordinates": [ -1.6575723, 53.7546842 ] } },
	{ "type": "Feature", "properties": { "osm_id": "415510968", "amenity": "atm", "other_tags": "\"operator\"=>\"Santander\"" }, "geometry": { "type": "Point", "coordinates": [ -1.9085059, 53.8681187 ] } },
	{ "type": "Feature", "properties": { "osm_id": "415510969", "amenity": "atm", "other_tags": "\"operator\"=>\"Bradford & Bingley\"" }, "geometry": { "type": "Point", "coordinates": [ -1.9090424, 53.8670781 ] } },
	{ "type": "Feature", "properties": { "osm_id": "415510970", "amenity": "atm", "other_tags": "\"operator\"=>\"Lloyds TSB\"" }, "geometry": { "type": "Point", "coordinates": [ -1.9074493, 53.8679405 ] } },
	{ "type": "Feature", "properties": { "osm_id": "415510974", "amenity": "atm", "other_tags": "\"operator\"=>\"Lloyds\"" }, "geometry": { "type": "Point", "coordinates": [ -1.909495, 53.8670019 ] } },
	{ "type": "Feature", "properties": { "osm_id": "415511033", "amenity": "atm", "other_tags": "\"operator\"=>\"Nationwide\"" }, "geometry": { "type": "Point", "coordinates": [ -1.9084126, 53.865813 ] } },
	{ "type": "Feature", "properties": { "osm_id": "415511036", "amenity": "atm", "other_tags": "\"operator\"=>\"Halifax\"" }, "geometry": { "type": "Point", "coordinates": [ -1.9079551, 53.865794 ] } },
	{ "type": "Feature", "properties": { "osm_id": "415511043", "amenity": "atm", "other_tags": "\"operator\"=>\"Cooperative\"" }, "geometry": { "type": "Point", "coordinates": [ -1.9073929, 53.8658996 ] } },
	{ "type": "Feature", "properties": { "osm_id": "419742425", "amenity": "atm" }, "geometry": { "type": "Point", "coordinates": [ -1.7321808, 53.8245005 ] } },
	{ "type": "Feature", "properties": { "osm_id": "425820759", "amenity": "atm", "other_tags": "\"operator\"=>\"Sainsbury's\"" }, "geometry": { "type": "Point", "coordinates": [ -1.7779015, 53.7009145 ] } },
	{ "type": "Feature", "properties": { "osm_id": "427819403", "amenity": "atm" }, "geometry": { "type": "Point", "coordinates": [ -1.7340224, 53.8426999 ] } },
	{ "type": "Feature", "properties": { "osm_id": "429827076", "amenity": "atm" }, "geometry": { "type": "Point", "coordinates": [ -1.624342, 53.7761064 ] } },
	{ "type": "Feature", "properties": { "osm_id": "446262602", "amenity": "atm", "other_tags": "\"wheelchair\"=>\"yes\"" }, "geometry": { "type": "Point", "coordinates": [ -1.9020707, 53.8695193 ] } },
	{ "type": "Feature", "properties": { "osm_id": "446295560", "amenity": "atm" }, "geometry": { "type": "Point", "coordinates": [ -1.6979581, 53.8028576 ] } },
	{ "type": "Feature", "properties": { "osm_id": "457161557", "amenity": "atm" }, "geometry": { "type": "Point", "coordinates": [ -1.6944173, 53.7531107 ] } },
	{ "type": "Feature", "properties": { "osm_id": "457646675", "amenity": "atm", "other_tags": "\"operator\"=>\"Post Office\"" }, "geometry": { "type": "Point", "coordinates": [ -1.7306779, 53.8349032 ] } },
	{ "type": "Feature", "properties": { "osm_id": "457646683", "amenity": "atm", "other_tags": "\"operator\"=>\"Yorkshire Bank\"" }, "geometry": { "type": "Point", "coordinates": [ -1.7307022, 53.8355681 ] } },
	{ "type": "Feature", "properties": { "osm_id": "493742619", "amenity": "atm", "other_tags": "\"operator\"=>\"RBS\"" }, "geometry": { "type": "Point", "coordinates": [ -1.8170823, 53.9243295 ] } },
	{ "type": "Feature", "properties": { "osm_id": "497396129", "amenity": "atm", "other_tags": "\"fee\"=>\"yes\"" }, "geometry": { "type": "Point", "coordinates": [ -1.7874222, 53.8360854 ] } },
	{ "type": "Feature", "properties": { "osm_id": "512686539", "amenity": "atm", "other_tags": "\"operator\"=>\"Sainsbury\"" }, "geometry": { "type": "Point", "coordinates": [ -1.6496755, 53.7048237 ] } },
	{ "type": "Feature", "properties": { "osm_id": "522949222", "amenity": "atm" }, "geometry": { "type": "Point", "coordinates": [ -1.5610471, 53.7814695 ] } },
	{ "type": "Feature", "properties": { "osm_id": "588154395", "amenity": "atm", "other_tags": "\"operator\"=>\"Yorkshire Bank\"" }, "geometry": { "type": "Point", "coordinates": [ -1.2548726, 53.708496 ] } },
	{ "type": "Feature", "properties": { "osm_id": "588154396", "amenity": "atm", "other_tags": "\"operator\"=>\"Yorkshire Bank\"" }, "geometry": { "type": "Point", "coordinates": [ -1.254882, 53.708496 ] } },
	{ "type": "Feature", "properties": { "osm_id": "595481584", "amenity": "atm" }, "geometry": { "type": "Point", "coordinates": [ -1.7537208, 53.803861 ] } },
	{ "type": "Feature", "properties": { "osm_id": "638692231", "amenity": "atm", "other_tags": "\"layer\"=>\"1\",\"operator\"=>\"NatWest\"" }, "geometry": { "type": "Point", "coordinates": [ -1.5478235, 53.794946 ] } },
	{ "type": "Feature", "properties": { "osm_id": "638692232", "amenity": "atm", "other_tags": "\"layer\"=>\"1\"" }, "geometry": { "type": "Point", "coordinates": [ -1.5477535, 53.7949764 ] } },
	{ "type": "Feature", "properties": { "osm_id": "638692233", "amenity": "atm", "other_tags": "\"layer\"=>\"1\"" }, "geometry": { "type": "Point", "coordinates": [ -1.5477908, 53.7949598 ] } },
	{ "type": "Feature", "properties": { "osm_id": "747542388", "amenity": "atm" }, "geometry": { "type": "Point", "coordinates": [ -1.5468778, 53.7977974 ] } },
	{ "type": "Feature", "properties": { "osm_id": "747542389", "amenity": "atm" }, "geometry": { "type": "Point", "coordinates": [ -1.5460938, 53.797659 ] } },
	{ "type": "Feature", "properties": { "osm_id": "846286331", "amenity": "atm" }, "geometry": { "type": "Point", "coordinates": [ -1.5326935, 53.8026154 ] } },
	{ "type": "Feature", "properties": { "osm_id": "926275642", "amenity": "atm" }, "geometry": { "type": "Point", "coordinates": [ -1.7304337, 53.6425176 ] } },
	{ "type": "Feature", "properties": { "osm_id": "1022499656", "amenity": "atm", "other_tags": "\"fee\"=>\"no\",\"operator\"=>\"Cashzone\"" }, "geometry": { "type": "Point", "coordinates": [ -1.6981021, 53.9035072 ] } },
	{ "type": "Feature", "properties": { "osm_id": "1025703046", "amenity": "atm", "other_tags": "\"fee\"=>\"no\"" }, "geometry": { "type": "Point", "coordinates": [ -1.5561147, 53.8067322 ] } },
	{ "type": "Feature", "properties": { "osm_id": "1025703047", "amenity": "atm", "other_tags": "\"operator\"=>\"Barclays Bank PLC\",\"wheelchair\"=>\"yes\"" }, "geometry": { "type": "Point", "coordinates": [ -1.5532458, 53.8066066 ] } },
	{ "type": "Feature", "properties": { "osm_id": "1038799938", "amenity": "atm" }, "geometry": { "type": "Point", "coordinates": [ -1.7798622, 53.8320796 ] } },
	{ "type": "Feature", "properties": { "osm_id": "1066119083", "amenity": "atm", "other_tags": "\"operator\"=>\"Barclays\"" }, "geometry": { "type": "Point", "coordinates": [ -1.7864924, 53.5696873 ] } },
	{ "type": "Feature", "properties": { "osm_id": "1069446639", "amenity": "atm", "other_tags": "\"operator\"=>\"Lloyds Bank\"" }, "geometry": { "type": "Point", "coordinates": [ -1.7867959, 53.5699623 ] } },
	{ "type": "Feature", "properties": { "osm_id": "1137884469", "amenity": "atm", "other_tags": "\"operator\"=>\"Barclays Bank PLC\"" }, "geometry": { "type": "Point", "coordinates": [ -1.6275316, 53.6919617 ] } },
	{ "type": "Feature", "properties": { "osm_id": "1182516742", "amenity": "atm" }, "geometry": { "type": "Point", "coordinates": [ -1.7327389, 53.771994 ] } },
	{ "type": "Feature", "properties": { "osm_id": "1235839316", "amenity": "atm", "other_tags": "\"fee\"=>\"no\",\"operator\"=>\"Barclays Bank PLC\"" }, "geometry": { "type": "Point", "coordinates": [ -1.8808393, 53.7152787 ] } },
	{ "type": "Feature", "properties": { "osm_id": "1237150529", "amenity": "atm", "other_tags": "\"fee\"=>\"no\"" }, "geometry": { "type": "Point", "coordinates": [ -1.8751868, 53.7269142 ] } },
	{ "type": "Feature", "properties": { "osm_id": "1247631801", "amenity": "atm" }, "geometry": { "type": "Point", "coordinates": [ -1.8580209, 53.7247837 ] } },
	{ "type": "Feature", "properties": { "osm_id": "1251743160", "amenity": "atm" }, "geometry": { "type": "Point", "coordinates": [ -1.6605588, 53.8073927 ] } },
	{ "type": "Feature", "properties": { "osm_id": "1313886882", "amenity": "atm", "other_tags": "\"operator\"=>\"Barclays Bank PLC\"" }, "geometry": { "type": "Point", "coordinates": [ -1.5553509, 53.8031829 ] } },
	{ "type": "Feature", "properties": { "osm_id": "1323671073", "amenity": "atm", "other_tags": "\"fee\"=>\"no\"" }, "geometry": { "type": "Point", "coordinates": [ -1.5521156, 53.7917137 ] } },
	{ "type": "Feature", "properties": { "osm_id": "1340360113", "amenity": "atm" }, "geometry": { "type": "Point", "coordinates": [ -1.6705776, 53.7034299 ] } },
	{ "type": "Feature", "properties": { "osm_id": "1347992538", "amenity": "atm", "other_tags": "\"fee\"=>\"no\",\"currency\"=>\"GBP\",\"operator\"=>\"The Co-operative Bank\"" }, "geometry": { "type": "Point", "coordinates": [ -1.784424, 53.5724115 ] } },
	{ "type": "Feature", "properties": { "osm_id": "1414371806", "amenity": "atm", "other_tags": "\"operator\"=>\"Halifax\",\"description\"=>\"Halifax\"" }, "geometry": { "type": "Point", "coordinates": [ -2.0969961, 53.7136066 ] } },
	{ "type": "Feature", "properties": { "osm_id": "1414372181", "amenity": "atm", "other_tags": "\"operator\"=>\"TSB\",\"description\"=>\"TSB\"" }, "geometry": { "type": "Point", "coordinates": [ -2.0972267, 53.7135892 ] } },
	{ "type": "Feature", "properties": { "osm_id": "1414423006", "amenity": "atm" }, "geometry": { "type": "Point", "coordinates": [ -2.101069, 53.710754 ] } },
	{ "type": "Feature", "properties": { "osm_id": "1414424652", "amenity": "atm" }, "geometry": { "type": "Point", "coordinates": [ -2.097202, 53.714039 ] } },
	{ "type": "Feature", "properties": { "osm_id": "1423146249", "amenity": "atm", "other_tags": "\"fee\"=>\"no\",\"network\"=>\"Link\",\"operator\"=>\"Yorkshire Bank\"" }, "geometry": { "type": "Point", "coordinates": [ -1.5082044, 53.8442838 ] } },
	{ "type": "Feature", "properties": { "osm_id": "1427701542", "amenity": "atm", "other_tags": "\"fee\"=>\"no\",\"operator\"=>\"Post Office\"" }, "geometry": { "type": "Point", "coordinates": [ -1.5580053, 53.8475809 ] } },
	{ "type": "Feature", "properties": { "osm_id": "1428534330", "amenity": "atm", "other_tags": "\"fee\"=>\"no\",\"network\"=>\"Link; Visa; Cirrus\",\"operator\"=>\"cashpoint\"" }, "geometry": { "type": "Point", "coordinates": [ -1.5352331, 53.8478176 ] } },
	{ "type": "Feature", "properties": { "osm_id": "1562986889", "amenity": "atm" }, "geometry": { "type": "Point", "coordinates": [ -1.5385023, 53.7975353 ] } },
	{ "type": "Feature", "properties": { "osm_id": "1619094065", "amenity": "atm" }, "geometry": { "type": "Point", "coordinates": [ -1.5671157, 53.8283634 ] } },
	{ "type": "Feature", "properties": { "osm_id": "1626440972", "amenity": "atm" }, "geometry": { "type": "Point", "coordinates": [ -1.5166988, 53.8446358 ] } },
	{ "type": "Feature", "properties": { "osm_id": "1626511287", "amenity": "atm", "other_tags": "\"fee\"=>\"no\",\"network\"=>\"Link\",\"operator\"=>\"Post Office\",\"speech_output:en\"=>\"yes\"" }, "geometry": { "type": "Point", "coordinates": [ -1.5094248, 53.8442149 ] } },
	{ "type": "Feature", "properties": { "osm_id": "1626511298", "amenity": "atm", "other_tags": "\"fee\"=>\"no\"" }, "geometry": { "type": "Point", "coordinates": [ -1.5099321, 53.844358 ] } },
	{ "type": "Feature", "properties": { "osm_id": "1633459695", "amenity": "atm", "other_tags": "\"fee\"=>\"no\",\"network\"=>\"Link\",\"operator\"=>\"Yorkshire Bank\"" }, "geometry": { "type": "Point", "coordinates": [ -1.5334168, 53.8424313 ] } },
	{ "type": "Feature", "properties": { "osm_id": "1634703049", "amenity": "atm", "other_tags": "\"fee\"=>\"£1.75\",\"network\"=>\"Link\"" }, "geometry": { "type": "Point", "coordinates": [ -1.4630307, 53.7015283 ] } },
	{ "type": "Feature", "properties": { "osm_id": "1640283320", "amenity": "atm" }, "geometry": { "type": "Point", "coordinates": [ -1.843641, 53.6569539 ] } },
	{ "type": "Feature", "properties": { "osm_id": "1649852100", "amenity": "atm", "other_tags": "\"operator\"=>\"HSBC\"" }, "geometry": { "type": "Point", "coordinates": [ -1.6021803, 53.8134854 ] } },
	{ "type": "Feature", "properties": { "osm_id": "1654209294", "amenity": "atm", "other_tags": "\"fee\"=>\"no\",\"operator\"=>\"Coop\"" }, "geometry": { "type": "Point", "coordinates": [ -1.3679874, 53.7661249 ] } },
	{ "type": "Feature", "properties": { "osm_id": "1654218195", "amenity": "atm", "other_tags": "\"fee\"=>\"no\",\"operator\"=>\"Barclays Bank PLC\"" }, "geometry": { "type": "Point", "coordinates": [ -1.3700634, 53.7666575 ] } },
	{ "type": "Feature", "properties": { "osm_id": "1677503278", "amenity": "atm", "other_tags": "\"fee\"=>\"no\",\"operator\"=>\"Co-operative Bank\"" }, "geometry": { "type": "Point", "coordinates": [ -1.8364618, 53.8472911 ] } },
	{ "type": "Feature", "properties": { "osm_id": "1700175508", "amenity": "atm", "other_tags": "\"operator\"=>\"The Co-operative Bank\"" }, "geometry": { "type": "Point", "coordinates": [ -1.9271911, 53.6011384 ] } },
	{ "type": "Feature", "properties": { "osm_id": "1704973341", "amenity": "atm" }, "geometry": { "type": "Point", "coordinates": [ -1.7028805, 53.6103183 ] } },
	{ "type": "Feature", "properties": { "osm_id": "1710609534", "amenity": "atm", "other_tags": "\"fee\"=>\"no\",\"operator\"=>\"Santander\"" }, "geometry": { "type": "Point", "coordinates": [ -1.7877411, 53.5702511 ] } },
	{ "type": "Feature", "properties": { "osm_id": "1718406486", "amenity": "atm" }, "geometry": { "type": "Point", "coordinates": [ -1.794555, 53.6315342 ] } },
	{ "type": "Feature", "properties": { "osm_id": "1771321859", "amenity": "atm", "other_tags": "\"fee\"=>\"no\",\"operator\"=>\"Barclays Bank PLC\"" }, "geometry": { "type": "Point", "coordinates": [ -1.8882749, 53.7250925 ] } },
	{ "type": "Feature", "properties": { "osm_id": "1793790050", "amenity": "atm" }, "geometry": { "type": "Point", "coordinates": [ -1.5511184, 53.8073053 ] } },
	{ "type": "Feature", "properties": { "osm_id": "1793790912", "amenity": "atm" }, "geometry": { "type": "Point", "coordinates": [ -1.5515631, 53.8075652 ] } },
	{ "type": "Feature", "properties": { "osm_id": "1793790913", "amenity": "atm" }, "geometry": { "type": "Point", "coordinates": [ -1.5515912, 53.8075805 ] } },
	{ "type": "Feature", "properties": { "osm_id": "1843118028", "amenity": "atm", "other_tags": "\"fee\"=>\"no\",\"brand\"=>\"Yorkshire Bank\"" }, "geometry": { "type": "Point", "coordinates": [ -1.5790884, 53.6566554 ] } },
	{ "type": "Feature", "properties": { "osm_id": "1874190022", "amenity": "atm" }, "geometry": { "type": "Point", "coordinates": [ -1.8417536, 53.7680872 ] } },
	{ "type": "Feature", "properties": { "osm_id": "1877270886", "amenity": "atm", "other_tags": "\"operator\"=>\"Halifax Building Society\"" }, "geometry": { "type": "Point", "coordinates": [ -1.694482, 53.9056907 ] } },
	{ "type": "Feature", "properties": { "osm_id": "1898248320", "amenity": "atm", "other_tags": "\"operator\"=>\"Coop Bank\"" }, "geometry": { "type": "Point", "coordinates": [ -1.8095172, 53.6377409 ] } },
	{ "type": "Feature", "properties": { "osm_id": "1919062502", "amenity": "atm" }, "geometry": { "type": "Point", "coordinates": [ -1.5869672, 53.8072356 ] } },
	{ "type": "Feature", "properties": { "osm_id": "1938631973", "amenity": "atm", "other_tags": "\"fee\"=>\"no\"" }, "geometry": { "type": "Point", "coordinates": [ -1.6331322, 53.846688 ] } },
	{ "type": "Feature", "properties": { "osm_id": "1965963839", "amenity": "atm", "other_tags": "\"operator\"=>\"HSBC\"" }, "geometry": { "type": "Point", "coordinates": [ -1.5342945, 53.8126686 ] } },
	{ "type": "Feature", "properties": { "osm_id": "1980759399", "amenity": "atm" }, "geometry": { "type": "Point", "coordinates": [ -1.7414933, 53.6781522 ] } },
	{ "type": "Feature", "properties": { "osm_id": "2009074940", "amenity": "atm" }, "geometry": { "type": "Point", "coordinates": [ -1.5054587, 53.82698 ] } },
	{ "type": "Feature", "properties": { "osm_id": "2054431718", "amenity": "atm", "other_tags": "\"fee\"=>\"no\",\"operator\"=>\"Yorkshire Bank\"" }, "geometry": { "type": "Point", "coordinates": [ -1.7263936, 53.8794542 ] } },
	{ "type": "Feature", "properties": { "osm_id": "2054431720", "amenity": "atm", "other_tags": "\"fee\"=>\"no\",\"operator\"=>\"Co-operative Bank\"" }, "geometry": { "type": "Point", "coordinates": [ -1.7409392, 53.8893209 ] } },
	{ "type": "Feature", "properties": { "osm_id": "2063891828", "amenity": "atm", "other_tags": "\"fee\"=>\"no\"" }, "geometry": { "type": "Point", "coordinates": [ -1.7779081, 53.6630253 ] } },
	{ "type": "Feature", "properties": { "osm_id": "2072972468", "amenity": "atm" }, "geometry": { "type": "Point", "coordinates": [ -1.5628409, 53.7643989 ] } },
	{ "type": "Feature", "properties": { "osm_id": "2117006491", "amenity": "atm", "other_tags": "\"operator\"=>\"Halifax\"" }, "geometry": { "type": "Point", "coordinates": [ -1.529241, 53.778987 ] } },
	{ "type": "Feature", "properties": { "osm_id": "2117006522", "amenity": "atm", "other_tags": "\"fee\"=>\"no\",\"operator\"=>\"Morrisons\"" }, "geometry": { "type": "Point", "coordinates": [ -1.5291605, 53.7789806 ] } },
	{ "type": "Feature", "properties": { "osm_id": "2127369008", "amenity": "atm" }, "geometry": { "type": "Point", "coordinates": [ -1.8558646, 53.6262053 ] } },
	{ "type": "Feature", "properties": { "osm_id": "2135010948", "amenity": "atm" }, "geometry": { "type": "Point", "coordinates": [ -1.5476732, 53.7912324 ] } },
	{ "type": "Feature", "properties": { "osm_id": "2135014985", "amenity": "atm", "other_tags": "\"fee\"=>\"no\"" }, "geometry": { "type": "Point", "coordinates": [ -1.5481854, 53.7916523 ] } },
	{ "type": "Feature", "properties": { "osm_id": "2148948484", "amenity": "atm" }, "geometry": { "type": "Point", "coordinates": [ -1.5626016, 53.8561811 ] } },
	{ "type": "Feature", "properties": { "osm_id": "2149405513", "amenity": "atm" }, "geometry": { "type": "Point", "coordinates": [ -1.4994285, 53.6845174 ] } },
	{ "type": "Feature", "properties": { "osm_id": "2182347191", "amenity": "atm", "other_tags": "\"fee\"=>\"no\",\"operator\"=>\"Halifax\"" }, "geometry": { "type": "Point", "coordinates": [ -1.6509553, 53.7013119 ] } },
	{ "type": "Feature", "properties": { "osm_id": "2196359295", "amenity": "atm", "other_tags": "\"fee\"=>\"no\",\"operator\"=>\"Tesco\"" }, "geometry": { "type": "Point", "coordinates": [ -1.8157644, 53.8160599 ] } },
	{ "type": "Feature", "properties": { "osm_id": "2214979249", "amenity": "atm", "other_tags": "\"fee\"=>\"no\"" }, "geometry": { "type": "Point", "coordinates": [ -1.9621753, 53.8977328 ] } },
	{ "type": "Feature", "properties": { "osm_id": "2281926881", "amenity": "atm", "other_tags": "\"operator\"=>\"Co-Operative Bank\"" }, "geometry": { "type": "Point", "coordinates": [ -1.4840343, 53.8001213 ] } },
	{ "type": "Feature", "properties": { "osm_id": "2353548622", "name": "Yorkshire Bank", "amenity": "atm", "other_tags": "\"operator\"=>\"Yorkshire Bank\",\"addr:city\"=>\"Otley\",\"addr:street\"=>\"Kirkgate\",\"addr:country\"=>\"GB\"" }, "geometry": { "type": "Point", "coordinates": [ -1.6941183, 53.905073 ] } },
	{ "type": "Feature", "properties": { "osm_id": "2376438238", "amenity": "atm" }, "geometry": { "type": "Point", "coordinates": [ -1.7914062, 53.6355633 ] } },
	{ "type": "Feature", "properties": { "osm_id": "2377793700", "amenity": "atm" }, "geometry": { "type": "Point", "coordinates": [ -1.9030084, 53.8749439 ] } },
	{ "type": "Feature", "properties": { "osm_id": "2392216087", "amenity": "atm", "other_tags": "\"fee\"=>\"no\",\"operator\"=>\"Halifax bank\"" }, "geometry": { "type": "Point", "coordinates": [ -1.8877437, 53.8593763 ] } },
	{ "type": "Feature", "properties": { "osm_id": "2406351384", "amenity": "atm", "other_tags": "\"fee\"=>\"£1.50\",\"operator\"=>\"Link\"" }, "geometry": { "type": "Point", "coordinates": [ -1.5805453, 53.8167101 ] } },
	{ "type": "Feature", "properties": { "osm_id": "2425822690", "amenity": "atm" }, "geometry": { "type": "Point", "coordinates": [ -1.7552937, 53.5760243 ] } },
	{ "type": "Feature", "properties": { "osm_id": "2548015389", "amenity": "atm", "other_tags": "\"fee\"=>\"no\",\"operator\"=>\"Yorkshire Bank\"" }, "geometry": { "type": "Point", "coordinates": [ -1.724761, 53.8777088 ] } },
	{ "type": "Feature", "properties": { "osm_id": "2603532402", "amenity": "atm" }, "geometry": { "type": "Point", "coordinates": [ -1.443518, 53.8219121 ] } },
	{ "type": "Feature", "properties": { "osm_id": "2623539932", "amenity": "atm", "other_tags": "\"fee\"=>\"no\"" }, "geometry": { "type": "Point", "coordinates": [ -1.983271, 53.7308901 ] } },
	{ "type": "Feature", "properties": { "osm_id": "2888241515", "name": "Cash Machine", "amenity": "atm" }, "geometry": { "type": "Point", "coordinates": [ -1.434765, 53.794515 ] } },
	{ "type": "Feature", "properties": { "osm_id": "3124685562", "amenity": "atm" }, "geometry": { "type": "Point", "coordinates": [ -1.6763581, 53.7064539 ] } },
	{ "type": "Feature", "properties": { "osm_id": "3145367892", "name": "Sainsburys", "amenity": "atm", "other_tags": "\"atm\"=>\"no\"" }, "geometry": { "type": "Point", "coordinates": [ -1.5381877, 53.7937203 ] } },
	{ "type": "Feature", "properties": { "osm_id": "3145367893", "amenity": "atm" }, "geometry": { "type": "Point", "coordinates": [ -1.5424919, 53.7918517 ] } },
	{ "type": "Feature", "properties": { "osm_id": "3225905510", "amenity": "atm" }, "geometry": { "type": "Point", "coordinates": [ -1.5701262, 53.8122085 ] } },
	{ "type": "Feature", "properties": { "osm_id": "3257033807", "amenity": "atm" }, "geometry": { "type": "Point", "coordinates": [ -1.4458031, 53.7534025 ] } },
	{ "type": "Feature", "properties": { "osm_id": "3320771026", "amenity": "atm" }, "geometry": { "type": "Point", "coordinates": [ -1.5529534, 53.7963722 ] } },
	{ "type": "Feature", "properties": { "osm_id": "3320771027", "amenity": "atm" }, "geometry": { "type": "Point", "coordinates": [ -1.5529597, 53.796348 ] } },
	{ "type": "Feature", "properties": { "osm_id": "3409740389", "amenity": "atm", "other_tags": "\"booth\"=>\"KXPlus\"" }, "geometry": { "type": "Point", "coordinates": [ -1.7825311, 53.6470409 ] } },
	{ "type": "Feature", "properties": { "osm_id": "3443058114", "amenity": "atm" }, "geometry": { "type": "Point", "coordinates": [ -1.8186298, 53.7849741 ] } },
	{ "type": "Feature", "properties": { "osm_id": "3445656291", "amenity": "atm" }, "geometry": { "type": "Point", "coordinates": [ -1.7843422, 53.6485579 ] } },
	{ "type": "Feature", "properties": { "osm_id": "3451185040", "amenity": "atm" }, "geometry": { "type": "Point", "coordinates": [ -1.351731, 53.726341 ] } },
	{ "type": "Feature", "properties": { "osm_id": "3451798851", "amenity": "atm" }, "geometry": { "type": "Point", "coordinates": [ -1.3508207, 53.7262268 ] } },
	{ "type": "Feature", "properties": { "osm_id": "3455481013", "amenity": "atm" }, "geometry": { "type": "Point", "coordinates": [ -1.5069845, 53.8261606 ] } },
	{ "type": "Feature", "properties": { "osm_id": "3455482908", "amenity": "atm" }, "geometry": { "type": "Point", "coordinates": [ -1.5109542, 53.8231683 ] } },
	{ "type": "Feature", "properties": { "osm_id": "3545383576", "amenity": "atm", "other_tags": "\"fee\"=>\"free\",\"operator\"=>\"Coop\"" }, "geometry": { "type": "Point", "coordinates": [ -1.8560858, 53.6399556 ] } },
	{ "type": "Feature", "properties": { "osm_id": "3612929539", "amenity": "atm" }, "geometry": { "type": "Point", "coordinates": [ -1.4692124, 53.8271652 ] } },
	{ "type": "Feature", "properties": { "osm_id": "3615121537", "amenity": "atm", "other_tags": "\"currency:GBP\"=>\"yes\",\"drive_through\"=>\"no\",\"operator\"=>\"Post Office\"" }, "geometry": { "type": "Point", "coordinates": [ -1.4646509, 53.7991766 ] } },
	{ "type": "Feature", "properties": { "osm_id": "3616415159", "amenity": "atm" }, "geometry": { "type": "Point", "coordinates": [ -1.4865327, 53.8233994 ] } },
	{ "type": "Feature", "properties": { "osm_id": "3616415171", "amenity": "atm" }, "geometry": { "type": "Point", "coordinates": [ -1.4862763, 53.823633 ] } },
	{ "type": "Feature", "properties": { "osm_id": "3617871904", "amenity": "atm" }, "geometry": { "type": "Point", "coordinates": [ -1.494899, 53.8208116 ] } },
	{ "type": "Feature", "properties": { "osm_id": "3618564326", "amenity": "atm" }, "geometry": { "type": "Point", "coordinates": [ -1.4882722, 53.8014446 ] } },
	{ "type": "Feature", "properties": { "osm_id": "3620225995", "amenity": "atm" }, "geometry": { "type": "Point", "coordinates": [ -1.5440111, 53.8333325 ] } },
	{ "type": "Feature", "properties": { "osm_id": "3620226005", "amenity": "atm" }, "geometry": { "type": "Point", "coordinates": [ -1.544333, 53.8328276 ] } },
	{ "type": "Feature", "properties": { "osm_id": "3626724748", "amenity": "atm" }, "geometry": { "type": "Point", "coordinates": [ -1.6038251, 53.8485396 ] } },
	{ "type": "Feature", "properties": { "osm_id": "3627169419", "amenity": "atm" }, "geometry": { "type": "Point", "coordinates": [ -1.7509681, 53.9126331 ] } },
	{ "type": "Feature", "properties": { "osm_id": "3632290907", "amenity": "atm" }, "geometry": { "type": "Point", "coordinates": [ -1.6284048, 53.7572311 ] } },
	{ "type": "Feature", "properties": { "osm_id": "3634830654", "amenity": "atm" }, "geometry": { "type": "Point", "coordinates": [ -1.388458, 53.793712 ] } },
	{ "type": "Feature", "properties": { "osm_id": "3634831393", "amenity": "atm" }, "geometry": { "type": "Point", "coordinates": [ -1.376105, 53.786215 ] } },
	{ "type": "Feature", "properties": { "osm_id": "3635703085", "amenity": "atm" }, "geometry": { "type": "Point", "coordinates": [ -1.4178316, 53.7685788 ] } },
	{ "type": "Feature", "properties": { "osm_id": "3646608059", "amenity": "atm" }, "geometry": { "type": "Point", "coordinates": [ -1.5688372, 53.8053649 ] } },
	{ "type": "Feature", "properties": { "osm_id": "3655905302", "amenity": "atm", "other_tags": "\"operator\"=>\"Lloyds\"" }, "geometry": { "type": "Point", "coordinates": [ -1.5335034, 53.8440003 ] } },
	{ "type": "Feature", "properties": { "osm_id": "3656642056", "amenity": "atm" }, "geometry": { "type": "Point", "coordinates": [ -1.5802456, 53.8210231 ] } },
	{ "type": "Feature", "properties": { "osm_id": "3660168631", "amenity": "atm" }, "geometry": { "type": "Point", "coordinates": [ -1.5744462, 53.807991 ] } },
	{ "type": "Feature", "properties": { "osm_id": "3663504264", "amenity": "atm" }, "geometry": { "type": "Point", "coordinates": [ -1.5293712, 53.7485413 ] } },
	{ "type": "Feature", "properties": { "osm_id": "3663514950", "amenity": "atm" }, "geometry": { "type": "Point", "coordinates": [ -1.5476205, 53.7474621 ] } },
	{ "type": "Feature", "properties": { "osm_id": "3738199852", "amenity": "atm", "other_tags": "\"fee\"=>\"no\"" }, "geometry": { "type": "Point", "coordinates": [ -1.6646677, 53.7955493 ] } },
	{ "type": "Feature", "properties": { "osm_id": "3738199854", "amenity": "atm", "other_tags": "\"fee\"=>\"no\"" }, "geometry": { "type": "Point", "coordinates": [ -1.6643037, 53.7959625 ] } },
	{ "type": "Feature", "properties": { "osm_id": "3833032812", "amenity": "atm", "other_tags": "\"operator\"=>\"Sainsburys\",\"opening_hours\"=>\"24\/7\"" }, "geometry": { "type": "Point", "coordinates": [ -1.692161, 53.9030404 ] } },
	{ "type": "Feature", "properties": { "osm_id": "3848979874", "amenity": "atm", "other_tags": "\"fee\"=>\"yes\"" }, "geometry": { "type": "Point", "coordinates": [ -1.6292684, 53.8473624 ] } },
	{ "type": "Feature", "properties": { "osm_id": "3904815772", "amenity": "atm", "other_tags": "\"drive_through\"=>\"no\",\"opening_hours\"=>\"24\/7\",\"operator\"=>\"Tesco Bank\"" }, "geometry": { "type": "Point", "coordinates": [ -1.6403145, 53.8319064 ] } },
	{ "type": "Feature", "properties": { "osm_id": "4051026380", "amenity": "atm", "other_tags": "\"fee\"=>\"yes\"" }, "geometry": { "type": "Point", "coordinates": [ -1.5501916, 53.621795 ] } },
	{ "type": "Feature", "properties": { "osm_id": "4113846170", "amenity": "atm", "other_tags": "\"operator\"=>\"Co-operative Bank\"" }, "geometry": { "type": "Point", "coordinates": [ -1.6719416, 53.811598 ] } },
	{ "type": "Feature", "properties": { "osm_id": "4189556311", "amenity": "atm", "other_tags": "\"fee\"=>\"no\"" }, "geometry": { "type": "Point", "coordinates": [ -1.3896007, 53.9302296 ] } },
	{ "type": "Feature", "properties": { "osm_id": "4192442239", "amenity": "atm" }, "geometry": { "type": "Point", "coordinates": [ -1.4768953, 53.8061054 ] } },
	{ "type": "Feature", "properties": { "osm_id": "4194370889", "amenity": "atm" }, "geometry": { "type": "Point", "coordinates": [ -1.5632551, 53.7242119 ] } },
	{ "type": "Feature", "properties": { "osm_id": "4313766614", "amenity": "atm" }, "geometry": { "type": "Point", "coordinates": [ -1.6226593, 53.857949 ] } },
	{ "type": "Feature", "properties": { "osm_id": "4361379815", "amenity": "atm" }, "geometry": { "type": "Point", "coordinates": [ -1.533685, 53.7869265 ] } },
	{ "type": "Feature", "properties": { "osm_id": "4362248593", "amenity": "atm", "other_tags": "\"opening_hours\"=>\"24\/7\"" }, "geometry": { "type": "Point", "coordinates": [ -1.3881868, 53.7942063 ] } },
	{ "type": "Feature", "properties": { "osm_id": "4362261290", "amenity": "atm", "other_tags": "\"opening_hours\"=>\"24\/7\"" }, "geometry": { "type": "Point", "coordinates": [ -1.3794149, 53.7835061 ] } },
	{ "type": "Feature", "properties": { "osm_id": "4423779127", "amenity": "atm", "other_tags": "\"charge\"=>\"£1.99\",\"fee\"=>\"yes\"" }, "geometry": { "type": "Point", "coordinates": [ -1.5457528, 53.622175 ] } },
	{ "type": "Feature", "properties": { "osm_id": "4466428504", "amenity": "atm" }, "geometry": { "type": "Point", "coordinates": [ -1.7761969, 53.83414 ] } },
	{ "type": "Feature", "properties": { "osm_id": "4466428505", "amenity": "atm" }, "geometry": { "type": "Point", "coordinates": [ -1.7769074, 53.8343878 ] } },
	{ "type": "Feature", "properties": { "osm_id": "4466428506", "amenity": "atm", "other_tags": "\"fee\"=>\"yes\"" }, "geometry": { "type": "Point", "coordinates": [ -1.7900014, 53.8375295 ] } },
	{ "type": "Feature", "properties": { "osm_id": "4472776105", "amenity": "atm" }, "geometry": { "type": "Point", "coordinates": [ -1.7439927, 53.912802 ] } },
	{ "type": "Feature", "properties": { "osm_id": "4530913181", "amenity": "atm" }, "geometry": { "type": "Point", "coordinates": [ -1.4514221, 53.8073722 ] } },
	{ "type": "Feature", "properties": { "osm_id": "4530913182", "amenity": "atm" }, "geometry": { "type": "Point", "coordinates": [ -1.4514001, 53.8073694 ] } },
	{ "type": "Feature", "properties": { "osm_id": "4530913184", "amenity": "atm" }, "geometry": { "type": "Point", "coordinates": [ -1.4507336, 53.8075279 ] } },
	{ "type": "Feature", "properties": { "osm_id": "4578048532", "amenity": "atm", "other_tags": "\"fee\"=>\"free\"" }, "geometry": { "type": "Point", "coordinates": [ -1.8559314, 53.6872278 ] } },
	{ "type": "Feature", "properties": { "osm_id": "4846648965", "amenity": "atm", "other_tags": "\"operator\"=>\"Post Office\"" }, "geometry": { "type": "Point", "coordinates": [ -1.5996265, 53.7435225 ] } },
	{ "type": "Feature", "properties": { "osm_id": "4850771274", "amenity": "atm", "other_tags": "\"fee\"=>\"yes\"" }, "geometry": { "type": "Point", "coordinates": [ -1.5426962, 53.7950648 ] } },
	{ "type": "Feature", "properties": { "osm_id": "4858379124", "amenity": "atm", "other_tags": "\"fee\"=>\"yes\"" }, "geometry": { "type": "Point", "coordinates": [ -1.7878942, 53.8362721 ] } },
	{ "type": "Feature", "properties": { "osm_id": "5045904359", "name": "NatWest", "amenity": "atm", "other_tags": "\"operator\"=>\"NatWest\"" }, "geometry": { "type": "Point", "coordinates": [ -1.8164935, 53.6554012 ] } },
	{ "type": "Feature", "properties": { "osm_id": "5156248736", "amenity": "atm", "other_tags": "\"booth\"=>\"KXPlus\",\"fee\"=>\"no\"" }, "geometry": { "type": "Point", "coordinates": [ -1.5400926, 53.7988481 ] } },
	{ "type": "Feature", "properties": { "osm_id": "5156248816", "amenity": "atm", "other_tags": "\"booth\"=>\"KXPlus\",\"fee\"=>\"no\"" }, "geometry": { "type": "Point", "coordinates": [ -1.542141, 53.7984802 ] } },
	{ "type": "Feature", "properties": { "osm_id": "5157873782", "amenity": "atm" }, "geometry": { "type": "Point", "coordinates": [ -1.7056365, 53.5749211 ] } },
	{ "type": "Feature", "properties": { "osm_id": "5194999637", "amenity": "atm", "other_tags": "\"operator\"=>\"RBS\"" }, "geometry": { "type": "Point", "coordinates": [ -1.5877846, 53.7616559 ] } },
	{ "type": "Feature", "properties": { "osm_id": "5209962937", "amenity": "atm" }, "geometry": { "type": "Point", "coordinates": [ -1.5309152, 53.8566286 ] } },
	{ "type": "Feature", "properties": { "osm_id": "5211443171", "amenity": "atm" }, "geometry": { "type": "Point", "coordinates": [ -1.5969755, 53.8217132 ] } },
	{ "type": "Feature", "properties": { "osm_id": "5212379639", "amenity": "atm" }, "geometry": { "type": "Point", "coordinates": [ -1.8629607, 53.7298611 ] } },
	{ "type": "Feature", "properties": { "osm_id": "5229255383", "amenity": "atm" }, "geometry": { "type": "Point", "coordinates": [ -1.7311409, 53.8081494 ] } },
	{ "type": "Feature", "properties": { "osm_id": "5229255387", "amenity": "atm" }, "geometry": { "type": "Point", "coordinates": [ -1.7305963, 53.8084933 ] } },
	{ "type": "Feature", "properties": { "osm_id": "5229466000", "amenity": "atm" }, "geometry": { "type": "Point", "coordinates": [ -1.6012479, 53.7522417 ] } },
	{ "type": "Feature", "properties": { "osm_id": "5231639152", "amenity": "atm" }, "geometry": { "type": "Point", "coordinates": [ -1.7356412, 53.7968725 ] } },
	{ "type": "Feature", "properties": { "osm_id": "5244761684", "amenity": "atm" }, "geometry": { "type": "Point", "coordinates": [ -1.3845568, 53.9310097 ] } },
	{ "type": "Feature", "properties": { "osm_id": "5248165218", "amenity": "atm" }, "geometry": { "type": "Point", "coordinates": [ -1.7855153, 53.7996617 ] } },
	{ "type": "Feature", "properties": { "osm_id": "5262528860", "amenity": "atm", "other_tags": "\"fee\"=>\"no\",\"operator\"=>\"RBS\"" }, "geometry": { "type": "Point", "coordinates": [ -1.4604494, 53.8221935 ] } },
	{ "type": "Feature", "properties": { "osm_id": "5301181159", "amenity": "atm" }, "geometry": { "type": "Point", "coordinates": [ -1.7135714, 53.7232006 ] } },
	{ "type": "Feature", "properties": { "osm_id": "5322536883", "amenity": "atm", "other_tags": "\"addr:city\"=>\"Brighouse\",\"addr:country\"=>\"GB\",\"addr:postcode\"=>\"HD6 3JT\",\"addr:street\"=>\"Highfield Road\",\"addr:suburb\"=>\"Rastrick\",\"currency:GBP\"=>\"yes\",\"operator\"=>\"Co Operative Bank\"" }, "geometry": { "type": "Point", "coordinates": [ -1.7997313, 53.6914382 ] } },
	{ "type": "Feature", "properties": { "osm_id": "5322538121", "amenity": "atm", "other_tags": "\"addr:city\"=>\"Calderdale\",\"addr:street\"=>\"Fixby Road\"" }, "geometry": { "type": "Point", "coordinates": [ -1.787529, 53.678637 ] } },
	{ "type": "Feature", "properties": { "osm_id": "5325196874", "amenity": "atm", "other_tags": "\"fee\"=>\"no\",\"network\"=>\"Link\",\"operator\"=>\"Sainsbury's Bank\"" }, "geometry": { "type": "Point", "coordinates": [ -1.6904612, 53.8580229 ] } },
	{ "type": "Feature", "properties": { "osm_id": "5340856636", "amenity": "atm", "other_tags": "\"operator\"=>\"Lloyds Bank\"" }, "geometry": { "type": "Point", "coordinates": [ -1.5423607, 53.7980248 ] } },
	{ "type": "Feature", "properties": { "osm_id": "5340856637", "amenity": "atm", "other_tags": "\"operator\"=>\"Lloyds Bank\"" }, "geometry": { "type": "Point", "coordinates": [ -1.5423788, 53.7979424 ] } },
	{ "type": "Feature", "properties": { "osm_id": "5438626908", "amenity": "atm", "other_tags": "\"brand\"=>\"RBS\"" }, "geometry": { "type": "Point", "coordinates": [ -1.8614906, 53.7226103 ] } },
	{ "type": "Feature", "properties": { "osm_id": "5451345358", "amenity": "atm", "other_tags": "\"brand\"=>\"Lloyds\",\"operator\"=>\"Lloyds\"" }, "geometry": { "type": "Point", "coordinates": [ -1.8616274, 53.7221057 ] } },
	{ "type": "Feature", "properties": { "osm_id": "5452280989", "amenity": "atm", "other_tags": "\"brand\"=>\"Barclays\"" }, "geometry": { "type": "Point", "coordinates": [ -1.8614012, 53.7215881 ] } },
	{ "type": "Feature", "properties": { "osm_id": "5452280990", "amenity": "atm", "other_tags": "\"brand\"=>\"Barclays\"" }, "geometry": { "type": "Point", "coordinates": [ -1.8614131, 53.7216263 ] } },
	{ "type": "Feature", "properties": { "osm_id": "5452280993", "amenity": "atm", "other_tags": "\"brand\"=>\"Lloyds\",\"operator\"=>\"Lloyds\"" }, "geometry": { "type": "Point", "coordinates": [ -1.8616642, 53.7220967 ] } },
	{ "type": "Feature", "properties": { "osm_id": "5475771248", "amenity": "atm", "other_tags": "\"operator\"=>\"Post Office\"" }, "geometry": { "type": "Point", "coordinates": [ -1.7128211, 53.87419 ] } },
	{ "type": "Feature", "properties": { "osm_id": "5475771249", "amenity": "atm", "other_tags": "\"operator\"=>\"Barclays\"" }, "geometry": { "type": "Point", "coordinates": [ -1.7128077, 53.8742612 ] } },
	{ "type": "Feature", "properties": { "osm_id": "5523013159", "amenity": "atm" }, "geometry": { "type": "Point", "coordinates": [ -1.4991545, 53.6781546 ] } },
	{ "type": "Feature", "properties": { "osm_id": "5523013160", "amenity": "atm" }, "geometry": { "type": "Point", "coordinates": [ -1.4991026, 53.6781485 ] } },
	{ "type": "Feature", "properties": { "osm_id": "5569969833", "amenity": "atm" }, "geometry": { "type": "Point", "coordinates": [ -1.8597606, 53.7239498 ] } },
	{ "type": "Feature", "properties": { "osm_id": "5570965013", "amenity": "atm" }, "geometry": { "type": "Point", "coordinates": [ -1.493018, 53.8091566 ] } },
	{ "type": "Feature", "properties": { "osm_id": "5627340256", "amenity": "atm" }, "geometry": { "type": "Point", "coordinates": [ -1.7955217, 53.8352698 ] } },
	{ "type": "Feature", "properties": { "osm_id": "5642157014", "amenity": "atm", "other_tags": "\"operator\"=>\"Yorkshire Bank\"" }, "geometry": { "type": "Point", "coordinates": [ -1.6409055, 53.8375549 ] } },
	{ "type": "Feature", "properties": { "osm_id": "5642157015", "amenity": "atm", "other_tags": "\"operator\"=>\"Halifax\"" }, "geometry": { "type": "Point", "coordinates": [ -1.6407344, 53.8376399 ] } },
	{ "type": "Feature", "properties": { "osm_id": "5642157016", "amenity": "atm", "other_tags": "\"operator\"=>\"Santander\"" }, "geometry": { "type": "Point", "coordinates": [ -1.6404544, 53.8378008 ] } },
	{ "type": "Feature", "properties": { "osm_id": "5792055772", "name": "Cash zone", "amenity": "atm" }, "geometry": { "type": "Point", "coordinates": [ -1.7965487, 53.8357238 ] } },
	{ "type": "Feature", "properties": { "osm_id": "5819186757", "amenity": "atm" }, "geometry": { "type": "Point", "coordinates": [ -1.5513639, 53.7918153 ] } },
	{ "type": "Feature", "properties": { "osm_id": "5920382950", "amenity": "atm", "other_tags": "\"brand\"=>\"Natwest\"" }, "geometry": { "type": "Point", "coordinates": [ -1.5058597, 53.6830471 ] } },
	{ "type": "Feature", "properties": { "osm_id": "5920382951", "amenity": "atm", "other_tags": "\"brand\"=>\"Natwest\"" }, "geometry": { "type": "Point", "coordinates": [ -1.5058659, 53.683055 ] } },
	{ "type": "Feature", "properties": { "osm_id": "5920382952", "amenity": "atm", "other_tags": "\"brand\"=>\"Natwest\"" }, "geometry": { "type": "Point", "coordinates": [ -1.5058721, 53.6830628 ] } },
	{ "type": "Feature", "properties": { "osm_id": "5940726770", "amenity": "atm", "other_tags": "\"brand\"=>\"Natwest\"" }, "geometry": { "type": "Point", "coordinates": [ -1.5399071, 53.7980986 ] } },
	{ "type": "Feature", "properties": { "osm_id": "5940726771", "amenity": "atm", "other_tags": "\"brand\"=>\"Natwest\"" }, "geometry": { "type": "Point", "coordinates": [ -1.5399025, 53.7981081 ] } },
	{ "type": "Feature", "properties": { "osm_id": "5940893595", "amenity": "atm" }, "geometry": { "type": "Point", "coordinates": [ -1.5121414, 53.8445661 ] } },
	{ "type": "Feature", "properties": { "osm_id": "6089224100", "amenity": "atm", "other_tags": "\"fee\"=>\"no\",\"operator\"=>\"TSB\"" }, "geometry": { "type": "Point", "coordinates": [ -1.5464837, 53.7994466 ] } },
	{ "type": "Feature", "properties": { "osm_id": "6111462411", "amenity": "atm" }, "geometry": { "type": "Point", "coordinates": [ -1.5412084, 53.787353 ] } },
	{ "type": "Feature", "properties": { "osm_id": "6139531117", "amenity": "atm", "other_tags": "\"brand\"=>\"Yorkshire Bank\"" }, "geometry": { "type": "Point", "coordinates": [ -1.5433687, 53.7981867 ] } },
	{ "type": "Feature", "properties": { "osm_id": "6188082758", "amenity": "atm", "other_tags": "\"cash_in\"=>\"no\",\"currency:GBP\"=>\"yes\",\"drive_through\"=>\"no\"" }, "geometry": { "type": "Point", "coordinates": [ -1.6165608, 53.8281927 ] } },
	{ "type": "Feature", "properties": { "osm_id": "6225963573", "amenity": "atm" }, "geometry": { "type": "Point", "coordinates": [ -1.7884727, 53.841114 ] } },
	{ "type": "Feature", "properties": { "osm_id": "6225969280", "amenity": "atm" }, "geometry": { "type": "Point", "coordinates": [ -1.7659216, 53.8412635 ] } },
	{ "type": "Feature", "properties": { "osm_id": "6294180908", "amenity": "atm", "other_tags": "\"cash_in\"=>\"no\",\"currency:GBP\"=>\"yes\",\"drive_through\"=>\"no\",\"location\"=>\"indoor\",\"location:name\"=>\"Heron Foods\"" }, "geometry": { "type": "Point", "coordinates": [ -1.4501345, 53.8068301 ] } },
	{ "type": "Feature", "properties": { "osm_id": "6294180909", "amenity": "atm", "other_tags": "\"cash_in\"=>\"no\",\"currency:GBP\"=>\"yes\",\"drive_through\"=>\"no\",\"location\"=>\"indoor\",\"location:name\"=>\"Poundland\"" }, "geometry": { "type": "Point", "coordinates": [ -1.4501359, 53.8063732 ] } },
	{ "type": "Feature", "properties": { "osm_id": "6294180910", "amenity": "atm", "other_tags": "\"cash_in\"=>\"no\",\"currency:GBP\"=>\"yes\",\"drive_through\"=>\"no\",\"location\"=>\"indoor\",\"location:name\"=>\"Wilko\"" }, "geometry": { "type": "Point", "coordinates": [ -1.450396, 53.8060857 ] } },
	{ "type": "Feature", "properties": { "osm_id": "6294180911", "amenity": "atm" }, "geometry": { "type": "Point", "coordinates": [ -1.4520487, 53.8072009 ] } },
	{ "type": "Feature", "properties": { "osm_id": "6294180912", "amenity": "atm" }, "geometry": { "type": "Point", "coordinates": [ -1.4520342, 53.8073247 ] } },
	{ "type": "Feature", "properties": { "osm_id": "6396466800", "amenity": "atm" }, "geometry": { "type": "Point", "coordinates": [ -1.3782586, 53.6350727 ] } },
	{ "type": "Feature", "properties": { "osm_id": "6551413438", "amenity": "atm" }, "geometry": { "type": "Point", "coordinates": [ -1.4961348, 53.683682 ] } },
	{ "type": "Feature", "properties": { "osm_id": "6600898423", "amenity": "atm", "other_tags": "\"brand\"=>\"Halifax\"" }, "geometry": { "type": "Point", "coordinates": [ -1.3529366, 53.7259898 ] } },
	{ "type": "Feature", "properties": { "osm_id": "6600898424", "amenity": "atm", "other_tags": "\"brand\"=>\"Halifax\"" }, "geometry": { "type": "Point", "coordinates": [ -1.3529119, 53.7259955 ] } },
	{ "type": "Feature", "properties": { "osm_id": "6625266272", "name": "Copley ATM", "amenity": "atm" }, "geometry": { "type": "Point", "coordinates": [ -1.8846362, 53.7073942 ] } },
	{ "type": "Feature", "properties": { "osm_id": "6702943716", "amenity": "atm", "other_tags": "\"currency:GBP\"=>\"yes\",\"fee\"=>\"£0.95\"" }, "geometry": { "type": "Point", "coordinates": [ -1.4413169, 53.8179001 ] } },
	{ "type": "Feature", "properties": { "osm_id": "6711989285", "amenity": "atm", "other_tags": "\"drive_through\"=>\"no\",\"operator\"=>\"Yorkshire Bank\"" }, "geometry": { "type": "Point", "coordinates": [ -1.7786502, 53.6456575 ] } },
	{ "type": "Feature", "properties": { "osm_id": "6780534916", "amenity": "atm" }, "geometry": { "type": "Point", "coordinates": [ -1.3132878, 53.6925133 ] } },
	{ "type": "Feature", "properties": { "osm_id": "6780534919", "amenity": "atm", "other_tags": "\"cash_in\"=>\"no\",\"drive_through\"=>\"no\"" }, "geometry": { "type": "Point", "coordinates": [ -1.3113022, 53.693622 ] } },
	{ "type": "Feature", "properties": { "osm_id": "6781698735", "amenity": "atm", "other_tags": "\"fee\"=>\"no\",\"operator\"=>\"Cashzone\"" }, "geometry": { "type": "Point", "coordinates": [ -1.3474148, 53.6407658 ] } },
	{ "type": "Feature", "properties": { "osm_id": "6815315851", "amenity": "atm" }, "geometry": { "type": "Point", "coordinates": [ -1.3105812, 53.692464 ] } },
	{ "type": "Feature", "properties": { "osm_id": "6859203125", "amenity": "atm" }, "geometry": { "type": "Point", "coordinates": [ -1.6700965, 53.6764705 ] } },
	{ "type": "Feature", "properties": { "osm_id": "6934606429", "amenity": "atm", "other_tags": "\"currency:GBP\"=>\"yes\"" }, "geometry": { "type": "Point", "coordinates": [ -1.3341621, 53.7123301 ] } },
	{ "type": "Feature", "properties": { "osm_id": "6934632321", "amenity": "atm", "other_tags": "\"currency:GBP\"=>\"yes\"" }, "geometry": { "type": "Point", "coordinates": [ -1.3418484, 53.7104455 ] } },
	{ "type": "Feature", "properties": { "osm_id": "6993858957", "amenity": "atm" }, "geometry": { "type": "Point", "coordinates": [ -1.8984692, 53.8268723 ] } },
	{ "type": "Feature", "properties": { "osm_id": "7181035933", "amenity": "atm", "other_tags": "\"fee\"=>\"no\",\"operator\"=>\"Tesco Express\"" }, "geometry": { "type": "Point", "coordinates": [ -1.7956128, 53.928733 ] } },
	{ "type": "Feature", "properties": { "osm_id": "7316151370", "amenity": "atm", "other_tags": "\"brand\"=>\"Santander\",\"opening_hours\"=>\"24\/7\",\"wheelchair\"=>\"yes\"" }, "geometry": { "type": "Point", "coordinates": [ -1.6008979, 53.7451769 ] } },
	{ "type": "Feature", "properties": { "osm_id": "7431404791", "amenity": "atm", "other_tags": "\"fee\"=>\"None\",\"operator\"=>\"Sainsbury's\"" }, "geometry": { "type": "Point", "coordinates": [ -1.5780687, 53.8218711 ] } },
	{ "type": "Feature", "properties": { "osm_id": "7575101683", "amenity": "atm" }, "geometry": { "type": "Point", "coordinates": [ -1.5201852, 53.8560377 ] } },
	{ "type": "Feature", "properties": { "osm_id": "7593715030", "amenity": "atm", "other_tags": "\"fee\"=>\"no\",\"operator\"=>\"RBS\"" }, "geometry": { "type": "Point", "coordinates": [ -1.4604704, 53.8222198 ] } },
	{ "type": "Feature", "properties": { "osm_id": "7593715032", "amenity": "atm", "other_tags": "\"fee\"=>\"no\",\"operator\"=>\"RBS\"" }, "geometry": { "type": "Point", "coordinates": [ -1.4604603, 53.8222071 ] } },
	{ "type": "Feature", "properties": { "osm_id": "7667095285", "amenity": "atm", "other_tags": "\"survey:date\"=>\"2020-06-29\"" }, "geometry": { "type": "Point", "coordinates": [ -1.5895142, 53.8132531 ] } }
]
}
