{
"type": "FeatureCollection",
"crs": { "type": "name", "properties": { "name": "urn:ogc:def:crs:OGC:1.3:CRS84" } },
"features": [
	{ "type": "Feature", "properties": { "osm_id": "3025622678", "amenity": "grit_bin", "other_tags": "\"access\"=>\"private\"" }, "geometry": { "type": "Point", "coordinates": [ -2.0084792, 53.7377103 ] } },
	{ "type": "Feature", "properties": { "osm_id": "3025622680", "amenity": "grit_bin", "other_tags": "\"access\"=>\"private\"" }, "geometry": { "type": "Point", "coordinates": [ -2.0094236, 53.7380717 ] } },
	{ "type": "Feature", "properties": { "osm_id": "3025622681", "amenity": "grit_bin" }, "geometry": { "type": "Point", "coordinates": [ -2.0101165, 53.7391388 ] } },
	{ "type": "Feature", "properties": { "osm_id": "4579780709", "amenity": "grit_bin" }, "geometry": { "type": "Point", "coordinates": [ -2.0125215, 53.7517077 ] } },
	{ "type": "Feature", "properties": { "osm_id": "7401626986", "amenity": "grit_bin" }, "geometry": { "type": "Point", "coordinates": [ -2.0206806, 53.7496211 ] } },
	{ "type": "Feature", "properties": { "osm_id": "8386694516", "amenity": "grit_bin" }, "geometry": { "type": "Point", "coordinates": [ -1.8583523, 53.7094817 ] } },
	{ "type": "Feature", "properties": { "osm_id": "8451320266", "amenity": "grit_bin" }, "geometry": { "type": "Point", "coordinates": [ -1.873226, 53.6883306 ] } },
	{ "type": "Feature", "properties": { "osm_id": "8462256483", "amenity": "grit_bin" }, "geometry": { "type": "Point", "coordinates": [ -1.9020872, 53.7483527 ] } },
	{ "type": "Feature", "properties": { "osm_id": "8807443563", "amenity": "grit_bin" }, "geometry": { "type": "Point", "coordinates": [ -1.9585134, 53.6551751 ] } },
	{ "type": "Feature", "properties": { "osm_id": "9046326573", "amenity": "grit_bin" }, "geometry": { "type": "Point", "coordinates": [ -2.0988441, 53.7098062 ] } }
]
}
