{
"type": "FeatureCollection",
"crs": { "type": "name", "properties": { "name": "urn:ogc:def:crs:OGC:1.3:CRS84" } },
"features": [
	{ "type": "Feature", "properties": { "osm_id": "376054065", "amenity": "bench" }, "geometry": { "type": "Point", "coordinates": [ -1.7755506, 53.706423 ] } },
	{ "type": "Feature", "properties": { "osm_id": "376054326", "amenity": "bench" }, "geometry": { "type": "Point", "coordinates": [ -1.7749029, 53.7044699 ] } },
	{ "type": "Feature", "properties": { "osm_id": "376986016", "amenity": "bench", "other_tags": "\"backrest\"=>\"yes\"" }, "geometry": { "type": "Point", "coordinates": [ -1.7820655, 53.7010955 ] } },
	{ "type": "Feature", "properties": { "osm_id": "425820760", "amenity": "bench", "other_tags": "\"backrest\"=>\"yes\"" }, "geometry": { "type": "Point", "coordinates": [ -1.7793488, 53.7005949 ] } },
	{ "type": "Feature", "properties": { "osm_id": "425820761", "amenity": "bench", "other_tags": "\"backrest\"=>\"yes\"" }, "geometry": { "type": "Point", "coordinates": [ -1.779913, 53.7006685 ] } },
	{ "type": "Feature", "properties": { "osm_id": "425820762", "amenity": "bench", "other_tags": "\"backrest\"=>\"yes\"" }, "geometry": { "type": "Point", "coordinates": [ -1.7802525, 53.70069 ] } },
	{ "type": "Feature", "properties": { "osm_id": "495677843", "amenity": "bench", "other_tags": "\"backrest\"=>\"yes\",\"material\"=>\"stone\",\"inscription\"=>\"THIS SEAT WAS BUILT IN MEMORY OF OUR DAD CYRIL WEBSTER WHO DIED DEC 1992 \\\"STILL WALKING THE HILLS\\\"\"" }, "geometry": { "type": "Point", "coordinates": [ -2.0528447, 53.7021652 ] } },
	{ "type": "Feature", "properties": { "osm_id": "495797022", "amenity": "bench" }, "geometry": { "type": "Point", "coordinates": [ -2.028383, 53.7409206 ] } },
	{ "type": "Feature", "properties": { "osm_id": "538608739", "amenity": "bench" }, "geometry": { "type": "Point", "coordinates": [ -2.0556782, 53.7775083 ] } },
	{ "type": "Feature", "properties": { "osm_id": "643011216", "amenity": "bench", "other_tags": "\"seats\"=>\"2\",\"tourism\"=>\"viewpoint\",\"backrest\"=>\"yes\",\"material\"=>\"wood\"" }, "geometry": { "type": "Point", "coordinates": [ -2.0277919, 53.7521 ] } },
	{ "type": "Feature", "properties": { "osm_id": "971867446", "amenity": "bench" }, "geometry": { "type": "Point", "coordinates": [ -2.017463, 53.7462608 ] } },
	{ "type": "Feature", "properties": { "osm_id": "1025480772", "amenity": "bench", "other_tags": "\"backrest\"=>\"yes\"" }, "geometry": { "type": "Point", "coordinates": [ -1.7790739, 53.70056 ] } },
	{ "type": "Feature", "properties": { "osm_id": "1156650369", "amenity": "bench", "other_tags": "\"seats\"=>\"3\",\"backrest\"=>\"yes\",\"material\"=>\"wood\"" }, "geometry": { "type": "Point", "coordinates": [ -2.0088727, 53.7378649 ] } },
	{ "type": "Feature", "properties": { "osm_id": "1156650429", "amenity": "bench" }, "geometry": { "type": "Point", "coordinates": [ -2.0087435, 53.7378903 ] } },
	{ "type": "Feature", "properties": { "osm_id": "1156650431", "amenity": "bench" }, "geometry": { "type": "Point", "coordinates": [ -2.008805, 53.7379099 ] } },
	{ "type": "Feature", "properties": { "osm_id": "1273001589", "amenity": "bench" }, "geometry": { "type": "Point", "coordinates": [ -2.0735108, 53.7891239 ] } },
	{ "type": "Feature", "properties": { "osm_id": "1277605575", "amenity": "bench" }, "geometry": { "type": "Point", "coordinates": [ -1.8597137, 53.676428 ] } },
	{ "type": "Feature", "properties": { "osm_id": "1588969586", "amenity": "bench", "other_tags": "\"backrest\"=>\"yes\"" }, "geometry": { "type": "Point", "coordinates": [ -1.797991, 53.7255996 ] } },
	{ "type": "Feature", "properties": { "osm_id": "2623561458", "amenity": "bench" }, "geometry": { "type": "Point", "coordinates": [ -1.9822349, 53.7308922 ] } },
	{ "type": "Feature", "properties": { "osm_id": "3527148244", "amenity": "bench" }, "geometry": { "type": "Point", "coordinates": [ -2.0972506, 53.713247 ] } },
	{ "type": "Feature", "properties": { "osm_id": "4008951392", "amenity": "bench" }, "geometry": { "type": "Point", "coordinates": [ -2.012776, 53.7786921 ] } },
	{ "type": "Feature", "properties": { "osm_id": "4593011925", "amenity": "bench" }, "geometry": { "type": "Point", "coordinates": [ -1.884009, 53.6723484 ] } },
	{ "type": "Feature", "properties": { "osm_id": "4593011926", "amenity": "bench" }, "geometry": { "type": "Point", "coordinates": [ -1.8830086, 53.6724962 ] } },
	{ "type": "Feature", "properties": { "osm_id": "4593011927", "amenity": "bench" }, "geometry": { "type": "Point", "coordinates": [ -1.8833854, 53.6728735 ] } },
	{ "type": "Feature", "properties": { "osm_id": "4593011928", "amenity": "bench" }, "geometry": { "type": "Point", "coordinates": [ -1.8825459, 53.6729736 ] } },
	{ "type": "Feature", "properties": { "osm_id": "4593011929", "amenity": "bench" }, "geometry": { "type": "Point", "coordinates": [ -1.8829402, 53.6765529 ] } },
	{ "type": "Feature", "properties": { "osm_id": "4593011930", "amenity": "bench" }, "geometry": { "type": "Point", "coordinates": [ -1.883136, 53.6770963 ] } },
	{ "type": "Feature", "properties": { "osm_id": "4593011931", "amenity": "bench" }, "geometry": { "type": "Point", "coordinates": [ -1.8829911, 53.6771201 ] } },
	{ "type": "Feature", "properties": { "osm_id": "4593011932", "amenity": "bench" }, "geometry": { "type": "Point", "coordinates": [ -1.8786218, 53.672657 ] } },
	{ "type": "Feature", "properties": { "osm_id": "4593011933", "amenity": "bench" }, "geometry": { "type": "Point", "coordinates": [ -1.8830367, 53.6717474 ] } },
	{ "type": "Feature", "properties": { "osm_id": "4593011935", "amenity": "bench" }, "geometry": { "type": "Point", "coordinates": [ -1.886132, 53.6701782 ] } },
	{ "type": "Feature", "properties": { "osm_id": "4593011937", "amenity": "bench" }, "geometry": { "type": "Point", "coordinates": [ -1.8817358, 53.6673989 ] } },
	{ "type": "Feature", "properties": { "osm_id": "4593011938", "amenity": "bench" }, "geometry": { "type": "Point", "coordinates": [ -1.8817358, 53.6673989 ] } },
	{ "type": "Feature", "properties": { "osm_id": "4593020294", "amenity": "bench" }, "geometry": { "type": "Point", "coordinates": [ -1.8829858, 53.6717787 ] } },
	{ "type": "Feature", "properties": { "osm_id": "5215137167", "amenity": "bench" }, "geometry": { "type": "Point", "coordinates": [ -1.7938357, 53.7478755 ] } },
	{ "type": "Feature", "properties": { "osm_id": "5260765644", "amenity": "bench" }, "geometry": { "type": "Point", "coordinates": [ -1.908618, 53.7036174 ] } },
	{ "type": "Feature", "properties": { "osm_id": "6426482160", "amenity": "bench", "other_tags": "\"backrest\"=>\"yes\"" }, "geometry": { "type": "Point", "coordinates": [ -1.8958937, 53.6948173 ] } },
	{ "type": "Feature", "properties": { "osm_id": "6432272832", "amenity": "bench", "other_tags": "\"backrest\"=>\"yes\"" }, "geometry": { "type": "Point", "coordinates": [ -1.9915383, 53.7341363 ] } },
	{ "type": "Feature", "properties": { "osm_id": "7099827215", "amenity": "bench", "other_tags": "\"seats\"=>\"4\",\"access\"=>\"yes\",\"colour\"=>\"brown\",\"backrest\"=>\"yes\",\"material\"=>\"wood\"" }, "geometry": { "type": "Point", "coordinates": [ -2.043625, 53.7566668 ] } },
	{ "type": "Feature", "properties": { "osm_id": "7241022365", "amenity": "bench", "other_tags": "\"backrest\"=>\"yes\"" }, "geometry": { "type": "Point", "coordinates": [ -2.0100042, 53.7398079 ] } },
	{ "type": "Feature", "properties": { "osm_id": "7398021153", "amenity": "bench", "other_tags": "\"seats\"=>\"2\",\"backrest\"=>\"yes\",\"material\"=>\"wood\"" }, "geometry": { "type": "Point", "coordinates": [ -2.0278195, 53.7521653 ] } },
	{ "type": "Feature", "properties": { "osm_id": "7401625271", "amenity": "bench", "other_tags": "\"seats\"=>\"2\",\"backrest\"=>\"yes\",\"material\"=>\"wood\"" }, "geometry": { "type": "Point", "coordinates": [ -2.030718, 53.7538238 ] } },
	{ "type": "Feature", "properties": { "osm_id": "7401625281", "amenity": "bench" }, "geometry": { "type": "Point", "coordinates": [ -2.0219695, 53.7490373 ] } },
	{ "type": "Feature", "properties": { "osm_id": "7401625282", "amenity": "bench" }, "geometry": { "type": "Point", "coordinates": [ -2.0218373, 53.7491148 ] } },
	{ "type": "Feature", "properties": { "osm_id": "7401625283", "amenity": "bench" }, "geometry": { "type": "Point", "coordinates": [ -2.0217374, 53.7491958 ] } },
	{ "type": "Feature", "properties": { "osm_id": "7401625284", "amenity": "bench" }, "geometry": { "type": "Point", "coordinates": [ -2.0216879, 53.7492498 ] } },
	{ "type": "Feature", "properties": { "osm_id": "7401626999", "amenity": "bench", "other_tags": "\"seats\"=>\"2\",\"backrest\"=>\"yes\",\"material\"=>\"wood\"" }, "geometry": { "type": "Point", "coordinates": [ -2.0209801, 53.7485634 ] } },
	{ "type": "Feature", "properties": { "osm_id": "7401627000", "amenity": "bench", "other_tags": "\"seats\"=>\"2\",\"backrest\"=>\"yes\",\"material\"=>\"wood\"" }, "geometry": { "type": "Point", "coordinates": [ -2.0209929, 53.7486063 ] } },
	{ "type": "Feature", "properties": { "osm_id": "7401627001", "amenity": "bench", "other_tags": "\"seats\"=>\"2\",\"backrest\"=>\"yes\",\"material\"=>\"wood\"" }, "geometry": { "type": "Point", "coordinates": [ -2.0209684, 53.7486466 ] } },
	{ "type": "Feature", "properties": { "osm_id": "7401627002", "amenity": "bench", "other_tags": "\"seats\"=>\"2\",\"backrest\"=>\"yes\",\"material\"=>\"wood\"" }, "geometry": { "type": "Point", "coordinates": [ -2.0208244, 53.7487072 ] } },
	{ "type": "Feature", "properties": { "osm_id": "7401627021", "amenity": "bench", "other_tags": "\"seats\"=>\"3\",\"backrest\"=>\"yes\",\"material\"=>\"wood\"" }, "geometry": { "type": "Point", "coordinates": [ -2.0088946, 53.7378435 ] } },
	{ "type": "Feature", "properties": { "osm_id": "7474209164", "amenity": "bench" }, "geometry": { "type": "Point", "coordinates": [ -2.0057251, 53.6731077 ] } },
	{ "type": "Feature", "properties": { "osm_id": "7857618710", "amenity": "bench", "other_tags": "\"backrest\"=>\"yes\"" }, "geometry": { "type": "Point", "coordinates": [ -1.8823412, 53.6745307 ] } },
	{ "type": "Feature", "properties": { "osm_id": "7857618711", "amenity": "bench" }, "geometry": { "type": "Point", "coordinates": [ -1.8820952, 53.6735761 ] } },
	{ "type": "Feature", "properties": { "osm_id": "7857618712", "amenity": "bench" }, "geometry": { "type": "Point", "coordinates": [ -1.8820992, 53.6736977 ] } },
	{ "type": "Feature", "properties": { "osm_id": "7857618713", "amenity": "bench" }, "geometry": { "type": "Point", "coordinates": [ -1.8821273, 53.6738907 ] } },
	{ "type": "Feature", "properties": { "osm_id": "7857618714", "amenity": "bench" }, "geometry": { "type": "Point", "coordinates": [ -1.8821501, 53.6740782 ] } },
	{ "type": "Feature", "properties": { "osm_id": "7857618715", "amenity": "bench" }, "geometry": { "type": "Point", "coordinates": [ -1.8822517, 53.6743102 ] } },
	{ "type": "Feature", "properties": { "osm_id": "7857618778", "amenity": "bench" }, "geometry": { "type": "Point", "coordinates": [ -1.8835402, 53.6735936 ] } },
	{ "type": "Feature", "properties": { "osm_id": "7927954191", "amenity": "bench" }, "geometry": { "type": "Point", "coordinates": [ -1.9778547, 53.723698 ] } },
	{ "type": "Feature", "properties": { "osm_id": "8098352626", "amenity": "bench", "other_tags": "\"backrest\"=>\"yes\",\"material\"=>\"wood\",\"seats\"=>\"4\"" }, "geometry": { "type": "Point", "coordinates": [ -2.0489904, 53.7141535 ] } },
	{ "type": "Feature", "properties": { "osm_id": "8098363879", "amenity": "bench", "other_tags": "\"backrest\"=>\"yes\"" }, "geometry": { "type": "Point", "coordinates": [ -2.0959593, 53.7145695 ] } },
	{ "type": "Feature", "properties": { "osm_id": "8098363880", "amenity": "bench", "other_tags": "\"backrest\"=>\"yes\"" }, "geometry": { "type": "Point", "coordinates": [ -2.0960045, 53.7145376 ] } },
	{ "type": "Feature", "properties": { "osm_id": "8098363881", "amenity": "bench", "other_tags": "\"backrest\"=>\"yes\"" }, "geometry": { "type": "Point", "coordinates": [ -2.0960091, 53.7144868 ] } },
	{ "type": "Feature", "properties": { "osm_id": "8098363882", "amenity": "bench", "other_tags": "\"backrest\"=>\"yes\"" }, "geometry": { "type": "Point", "coordinates": [ -2.0955807, 53.7143331 ] } },
	{ "type": "Feature", "properties": { "osm_id": "8098363883", "amenity": "bench", "other_tags": "\"backrest\"=>\"yes\"" }, "geometry": { "type": "Point", "coordinates": [ -2.0955487, 53.7143541 ] } },
	{ "type": "Feature", "properties": { "osm_id": "8112918195", "amenity": "bench", "other_tags": "\"backrest\"=>\"yes\",\"material\"=>\"wood\"" }, "geometry": { "type": "Point", "coordinates": [ -2.0558116, 53.7087127 ] } },
	{ "type": "Feature", "properties": { "osm_id": "8390224429", "amenity": "bench", "other_tags": "\"material\"=>\"stone\"" }, "geometry": { "type": "Point", "coordinates": [ -1.8574214, 53.7220022 ] } },
	{ "type": "Feature", "properties": { "osm_id": "8390224430", "amenity": "bench", "other_tags": "\"material\"=>\"stone\"" }, "geometry": { "type": "Point", "coordinates": [ -1.857404, 53.7219752 ] } },
	{ "type": "Feature", "properties": { "osm_id": "8390224431", "amenity": "bench", "other_tags": "\"material\"=>\"stone\"" }, "geometry": { "type": "Point", "coordinates": [ -1.8573919, 53.7219562 ] } },
	{ "type": "Feature", "properties": { "osm_id": "8390224432", "amenity": "bench", "other_tags": "\"material\"=>\"stone\"" }, "geometry": { "type": "Point", "coordinates": [ -1.8573825, 53.7219348 ] } },
	{ "type": "Feature", "properties": { "osm_id": "8390224433", "amenity": "bench", "other_tags": "\"material\"=>\"stone\"" }, "geometry": { "type": "Point", "coordinates": [ -1.8573678, 53.7219149 ] } },
	{ "type": "Feature", "properties": { "osm_id": "8390224434", "amenity": "bench", "other_tags": "\"material\"=>\"stone\"" }, "geometry": { "type": "Point", "coordinates": [ -1.857357, 53.7218935 ] } },
	{ "type": "Feature", "properties": { "osm_id": "8390224435", "amenity": "bench", "other_tags": "\"material\"=>\"stone\"" }, "geometry": { "type": "Point", "coordinates": [ -1.8573101, 53.7218253 ] } },
	{ "type": "Feature", "properties": { "osm_id": "8390224436", "amenity": "bench", "other_tags": "\"material\"=>\"stone\"" }, "geometry": { "type": "Point", "coordinates": [ -1.8572967, 53.7218023 ] } },
	{ "type": "Feature", "properties": { "osm_id": "8390224437", "amenity": "bench", "other_tags": "\"material\"=>\"stone\"" }, "geometry": { "type": "Point", "coordinates": [ -1.8572846, 53.7217832 ] } },
	{ "type": "Feature", "properties": { "osm_id": "8390224438", "amenity": "bench", "other_tags": "\"material\"=>\"stone\"" }, "geometry": { "type": "Point", "coordinates": [ -1.8572739, 53.7217618 ] } },
	{ "type": "Feature", "properties": { "osm_id": "8390224439", "amenity": "bench", "other_tags": "\"material\"=>\"stone\"" }, "geometry": { "type": "Point", "coordinates": [ -1.8572591, 53.7217396 ] } },
	{ "type": "Feature", "properties": { "osm_id": "8390224440", "amenity": "bench", "other_tags": "\"material\"=>\"stone\"" }, "geometry": { "type": "Point", "coordinates": [ -1.8572444, 53.7217189 ] } },
	{ "type": "Feature", "properties": { "osm_id": "8390224441", "amenity": "bench", "other_tags": "\"material\"=>\"stone\"" }, "geometry": { "type": "Point", "coordinates": [ -1.8572296, 53.7216983 ] } },
	{ "type": "Feature", "properties": { "osm_id": "8390224442", "amenity": "bench", "other_tags": "\"material\"=>\"stone\"" }, "geometry": { "type": "Point", "coordinates": [ -1.8572162, 53.7216777 ] } },
	{ "type": "Feature", "properties": { "osm_id": "8390224443", "amenity": "bench", "other_tags": "\"material\"=>\"stone\"" }, "geometry": { "type": "Point", "coordinates": [ -1.8572028, 53.7216554 ] } },
	{ "type": "Feature", "properties": { "osm_id": "8390224444", "amenity": "bench", "other_tags": "\"material\"=>\"stone\"" }, "geometry": { "type": "Point", "coordinates": [ -1.8571921, 53.7216348 ] } },
	{ "type": "Feature", "properties": { "osm_id": "8390224445", "amenity": "bench", "other_tags": "\"material\"=>\"stone\"" }, "geometry": { "type": "Point", "coordinates": [ -1.8571787, 53.7216182 ] } },
	{ "type": "Feature", "properties": { "osm_id": "8390224446", "amenity": "bench", "other_tags": "\"material\"=>\"stone\"" }, "geometry": { "type": "Point", "coordinates": [ -1.8571626, 53.7215959 ] } },
	{ "type": "Feature", "properties": { "osm_id": "8390224447", "amenity": "bench", "other_tags": "\"material\"=>\"stone\"" }, "geometry": { "type": "Point", "coordinates": [ -1.8573208, 53.7219649 ] } },
	{ "type": "Feature", "properties": { "osm_id": "8390224448", "amenity": "bench", "other_tags": "\"material\"=>\"stone\"" }, "geometry": { "type": "Point", "coordinates": [ -1.857294, 53.7219348 ] } },
	{ "type": "Feature", "properties": { "osm_id": "8390224449", "amenity": "bench", "other_tags": "\"material\"=>\"stone\"" }, "geometry": { "type": "Point", "coordinates": [ -1.8572175, 53.7218276 ] } },
	{ "type": "Feature", "properties": { "osm_id": "8390224450", "amenity": "bench", "other_tags": "\"material\"=>\"stone\"" }, "geometry": { "type": "Point", "coordinates": [ -1.8571988, 53.7218046 ] } },
	{ "type": "Feature", "properties": { "osm_id": "8390224451", "amenity": "bench", "other_tags": "\"material\"=>\"stone\"" }, "geometry": { "type": "Point", "coordinates": [ -1.8571787, 53.7217784 ] } },
	{ "type": "Feature", "properties": { "osm_id": "8390224452", "amenity": "bench", "other_tags": "\"material\"=>\"stone\"" }, "geometry": { "type": "Point", "coordinates": [ -1.8571559, 53.7217523 ] } },
	{ "type": "Feature", "properties": { "osm_id": "8390224453", "amenity": "bench", "other_tags": "\"material\"=>\"stone\"" }, "geometry": { "type": "Point", "coordinates": [ -1.8571371, 53.7217269 ] } },
	{ "type": "Feature", "properties": { "osm_id": "8390224454", "amenity": "bench", "other_tags": "\"material\"=>\"stone\"" }, "geometry": { "type": "Point", "coordinates": [ -1.8571143, 53.7217015 ] } },
	{ "type": "Feature", "properties": { "osm_id": "8390224455", "amenity": "bench", "other_tags": "\"material\"=>\"stone\"" }, "geometry": { "type": "Point", "coordinates": [ -1.8566141, 53.7219824 ] } },
	{ "type": "Feature", "properties": { "osm_id": "8390224456", "amenity": "bench", "other_tags": "\"material\"=>\"stone\"" }, "geometry": { "type": "Point", "coordinates": [ -1.856602, 53.7219649 ] } },
	{ "type": "Feature", "properties": { "osm_id": "8390224457", "amenity": "bench", "other_tags": "\"material\"=>\"stone\"" }, "geometry": { "type": "Point", "coordinates": [ -1.8565859, 53.7219403 ] } },
	{ "type": "Feature", "properties": { "osm_id": "8390224458", "amenity": "bench", "other_tags": "\"material\"=>\"stone\"" }, "geometry": { "type": "Point", "coordinates": [ -1.8565215, 53.7219721 ] } },
	{ "type": "Feature", "properties": { "osm_id": "8390224459", "amenity": "bench", "other_tags": "\"material\"=>\"stone\"" }, "geometry": { "type": "Point", "coordinates": [ -1.8564893, 53.7219316 ] } },
	{ "type": "Feature", "properties": { "osm_id": "8390224460", "amenity": "bench", "other_tags": "\"material\"=>\"stone\"" }, "geometry": { "type": "Point", "coordinates": [ -1.8566181, 53.7221094 ] } },
	{ "type": "Feature", "properties": { "osm_id": "8390224461", "amenity": "bench", "other_tags": "\"material\"=>\"stone\"" }, "geometry": { "type": "Point", "coordinates": [ -1.8566529, 53.722049 ] } },
	{ "type": "Feature", "properties": { "osm_id": "8390224462", "amenity": "bench", "other_tags": "\"material\"=>\"stone\"" }, "geometry": { "type": "Point", "coordinates": [ -1.8566677, 53.7220752 ] } },
	{ "type": "Feature", "properties": { "osm_id": "8390224463", "amenity": "bench", "other_tags": "\"material\"=>\"stone\"" }, "geometry": { "type": "Point", "coordinates": [ -1.8567079, 53.7221371 ] } },
	{ "type": "Feature", "properties": { "osm_id": "8390224464", "amenity": "bench", "other_tags": "\"material\"=>\"stone\"" }, "geometry": { "type": "Point", "coordinates": [ -1.8566932, 53.7221173 ] } },
	{ "type": "Feature", "properties": { "osm_id": "8390224465", "amenity": "bench", "other_tags": "\"material\"=>\"stone\"" }, "geometry": { "type": "Point", "coordinates": [ -1.8566811, 53.7220967 ] } },
	{ "type": "Feature", "properties": { "osm_id": "8390224466", "amenity": "bench", "other_tags": "\"material\"=>\"stone\"" }, "geometry": { "type": "Point", "coordinates": [ -1.8567307, 53.7222506 ] } },
	{ "type": "Feature", "properties": { "osm_id": "8390224467", "amenity": "bench", "other_tags": "\"material\"=>\"stone\"" }, "geometry": { "type": "Point", "coordinates": [ -1.8567173, 53.7222316 ] } },
	{ "type": "Feature", "properties": { "osm_id": "8390224468", "amenity": "bench", "other_tags": "\"material\"=>\"stone\"" }, "geometry": { "type": "Point", "coordinates": [ -1.8567052, 53.7222117 ] } },
	{ "type": "Feature", "properties": { "osm_id": "8390224469", "amenity": "bench", "other_tags": "\"material\"=>\"stone\"" }, "geometry": { "type": "Point", "coordinates": [ -1.8566918, 53.7221911 ] } },
	{ "type": "Feature", "properties": { "osm_id": "8390224521", "amenity": "bench", "other_tags": "\"material\"=>\"stone\"" }, "geometry": { "type": "Point", "coordinates": [ -1.8573785, 53.7220887 ] } },
	{ "type": "Feature", "properties": { "osm_id": "8390224522", "amenity": "bench", "other_tags": "\"material\"=>\"stone\"" }, "geometry": { "type": "Point", "coordinates": [ -1.857345, 53.7221066 ] } },
	{ "type": "Feature", "properties": { "osm_id": "8390224523", "amenity": "bench", "other_tags": "\"material\"=>\"stone\"" }, "geometry": { "type": "Point", "coordinates": [ -1.8573181, 53.7221316 ] } },
	{ "type": "Feature", "properties": { "osm_id": "8390224524", "amenity": "bench", "other_tags": "\"material\"=>\"stone\"" }, "geometry": { "type": "Point", "coordinates": [ -1.857304, 53.7221566 ] } },
	{ "type": "Feature", "properties": { "osm_id": "8390224525", "amenity": "bench", "other_tags": "\"material\"=>\"stone\"" }, "geometry": { "type": "Point", "coordinates": [ -1.857296, 53.7221812 ] } },
	{ "type": "Feature", "properties": { "osm_id": "8390224526", "amenity": "bench", "other_tags": "\"material\"=>\"stone\"" }, "geometry": { "type": "Point", "coordinates": [ -1.8565946, 53.7215194 ] } },
	{ "type": "Feature", "properties": { "osm_id": "8390235904", "amenity": "bench", "other_tags": "\"backrest\"=>\"yes\",\"material\"=>\"wood\"" }, "geometry": { "type": "Point", "coordinates": [ -1.8593251, 53.7217939 ] } },
	{ "type": "Feature", "properties": { "osm_id": "8390235905", "amenity": "bench", "other_tags": "\"backrest\"=>\"yes\",\"material\"=>\"wood\"" }, "geometry": { "type": "Point", "coordinates": [ -1.859301, 53.7217296 ] } },
	{ "type": "Feature", "properties": { "osm_id": "8390235906", "amenity": "bench", "other_tags": "\"backrest\"=>\"yes\",\"material\"=>\"wood\"" }, "geometry": { "type": "Point", "coordinates": [ -1.8592795, 53.7216677 ] } },
	{ "type": "Feature", "properties": { "osm_id": "8390235907", "amenity": "bench", "other_tags": "\"backrest\"=>\"yes\",\"material\"=>\"wood\"" }, "geometry": { "type": "Point", "coordinates": [ -1.8591816, 53.721809 ] } },
	{ "type": "Feature", "properties": { "osm_id": "8390235908", "amenity": "bench", "other_tags": "\"backrest\"=>\"yes\",\"material\"=>\"wood\"" }, "geometry": { "type": "Point", "coordinates": [ -1.8591575, 53.7217487 ] } },
	{ "type": "Feature", "properties": { "osm_id": "8390235909", "amenity": "bench", "other_tags": "\"backrest\"=>\"yes\",\"material\"=>\"wood\"" }, "geometry": { "type": "Point", "coordinates": [ -1.8591347, 53.7216884 ] } },
	{ "type": "Feature", "properties": { "osm_id": "8394641842", "amenity": "bench" }, "geometry": { "type": "Point", "coordinates": [ -1.8604825, 53.7147827 ] } },
	{ "type": "Feature", "properties": { "osm_id": "8394641843", "amenity": "bench" }, "geometry": { "type": "Point", "coordinates": [ -1.8604235, 53.7146819 ] } },
	{ "type": "Feature", "properties": { "osm_id": "8394641844", "amenity": "bench" }, "geometry": { "type": "Point", "coordinates": [ -1.8608071, 53.7148042 ] } },
	{ "type": "Feature", "properties": { "osm_id": "8394641845", "amenity": "bench" }, "geometry": { "type": "Point", "coordinates": [ -1.8609305, 53.7146351 ] } },
	{ "type": "Feature", "properties": { "osm_id": "8394641846", "amenity": "bench" }, "geometry": { "type": "Point", "coordinates": [ -1.8608004, 53.714447 ] } },
	{ "type": "Feature", "properties": { "osm_id": "8394641847", "amenity": "bench" }, "geometry": { "type": "Point", "coordinates": [ -1.8604691, 53.7145097 ] } },
	{ "type": "Feature", "properties": { "osm_id": "8397638342", "amenity": "bench" }, "geometry": { "type": "Point", "coordinates": [ -1.8612257, 53.720946 ] } },
	{ "type": "Feature", "properties": { "osm_id": "8397638344", "amenity": "bench" }, "geometry": { "type": "Point", "coordinates": [ -1.8613517, 53.7214023 ] } },
	{ "type": "Feature", "properties": { "osm_id": "8397638345", "amenity": "bench" }, "geometry": { "type": "Point", "coordinates": [ -1.8613423, 53.7213547 ] } },
	{ "type": "Feature", "properties": { "osm_id": "8404471743", "amenity": "bench", "other_tags": "\"backrest\"=>\"yes\"" }, "geometry": { "type": "Point", "coordinates": [ -1.8602208, 53.7176865 ] } },
	{ "type": "Feature", "properties": { "osm_id": "8404623314", "amenity": "bench" }, "geometry": { "type": "Point", "coordinates": [ -1.8607535, 53.7049306 ] } },
	{ "type": "Feature", "properties": { "osm_id": "8404623315", "amenity": "bench" }, "geometry": { "type": "Point", "coordinates": [ -1.8608178, 53.7043717 ] } },
	{ "type": "Feature", "properties": { "osm_id": "8407760449", "amenity": "bench", "other_tags": "\"backrest\"=>\"yes\"" }, "geometry": { "type": "Point", "coordinates": [ -1.8776985, 53.7089866 ] } },
	{ "type": "Feature", "properties": { "osm_id": "8407760450", "amenity": "bench", "other_tags": "\"backrest\"=>\"yes\"" }, "geometry": { "type": "Point", "coordinates": [ -1.877272, 53.7084976 ] } },
	{ "type": "Feature", "properties": { "osm_id": "8407760451", "amenity": "bench", "other_tags": "\"backrest\"=>\"yes\"" }, "geometry": { "type": "Point", "coordinates": [ -1.8768375, 53.7080166 ] } },
	{ "type": "Feature", "properties": { "osm_id": "8407760452", "amenity": "bench", "other_tags": "\"backrest\"=>\"yes\"" }, "geometry": { "type": "Point", "coordinates": [ -1.876411, 53.7075308 ] } },
	{ "type": "Feature", "properties": { "osm_id": "8407760453", "amenity": "bench", "other_tags": "\"backrest\"=>\"yes\"" }, "geometry": { "type": "Point", "coordinates": [ -1.8759872, 53.7070481 ] } },
	{ "type": "Feature", "properties": { "osm_id": "8407760454", "amenity": "bench", "other_tags": "\"backrest\"=>\"yes\"" }, "geometry": { "type": "Point", "coordinates": [ -1.8755527, 53.7065607 ] } },
	{ "type": "Feature", "properties": { "osm_id": "8407760455", "amenity": "bench", "other_tags": "\"backrest\"=>\"yes\"" }, "geometry": { "type": "Point", "coordinates": [ -1.8747802, 53.7055716 ] } },
	{ "type": "Feature", "properties": { "osm_id": "8409083003", "amenity": "bench" }, "geometry": { "type": "Point", "coordinates": [ -1.9217677, 53.7435286 ] } },
	{ "type": "Feature", "properties": { "osm_id": "8409083010", "amenity": "bench" }, "geometry": { "type": "Point", "coordinates": [ -1.9214512, 53.7436048 ] } },
	{ "type": "Feature", "properties": { "osm_id": "8411568006", "amenity": "bench" }, "geometry": { "type": "Point", "coordinates": [ -1.8609125, 53.7249372 ] } },
	{ "type": "Feature", "properties": { "osm_id": "8411568007", "amenity": "bench" }, "geometry": { "type": "Point", "coordinates": [ -1.8609473, 53.7250158 ] } },
	{ "type": "Feature", "properties": { "osm_id": "8411568008", "amenity": "bench" }, "geometry": { "type": "Point", "coordinates": [ -1.8609956, 53.7250824 ] } },
	{ "type": "Feature", "properties": { "osm_id": "8411568009", "amenity": "bench" }, "geometry": { "type": "Point", "coordinates": [ -1.861056, 53.7251919 ] } },
	{ "type": "Feature", "properties": { "osm_id": "8411568010", "amenity": "bench" }, "geometry": { "type": "Point", "coordinates": [ -1.8610922, 53.7252784 ] } },
	{ "type": "Feature", "properties": { "osm_id": "8411568011", "amenity": "bench" }, "geometry": { "type": "Point", "coordinates": [ -1.8611485, 53.7253641 ] } },
	{ "type": "Feature", "properties": { "osm_id": "8412224469", "amenity": "bench" }, "geometry": { "type": "Point", "coordinates": [ -1.8628962, 53.7222706 ] } },
	{ "type": "Feature", "properties": { "osm_id": "8412224470", "amenity": "bench" }, "geometry": { "type": "Point", "coordinates": [ -1.86286, 53.7223027 ] } },
	{ "type": "Feature", "properties": { "osm_id": "8412224471", "amenity": "bench" }, "geometry": { "type": "Point", "coordinates": [ -1.8627863, 53.7222912 ] } },
	{ "type": "Feature", "properties": { "osm_id": "8412224472", "amenity": "bench" }, "geometry": { "type": "Point", "coordinates": [ -1.862691, 53.7223225 ] } },
	{ "type": "Feature", "properties": { "osm_id": "8412224473", "amenity": "bench" }, "geometry": { "type": "Point", "coordinates": [ -1.8626649, 53.7223523 ] } },
	{ "type": "Feature", "properties": { "osm_id": "8412224474", "amenity": "bench" }, "geometry": { "type": "Point", "coordinates": [ -1.8626139, 53.7223443 ] } },
	{ "type": "Feature", "properties": { "osm_id": "8412224475", "amenity": "bench" }, "geometry": { "type": "Point", "coordinates": [ -1.8624879, 53.7223646 ] } },
	{ "type": "Feature", "properties": { "osm_id": "8412224476", "amenity": "bench" }, "geometry": { "type": "Point", "coordinates": [ -1.8624644, 53.7224051 ] } },
	{ "type": "Feature", "properties": { "osm_id": "8412224477", "amenity": "bench" }, "geometry": { "type": "Point", "coordinates": [ -1.8623839, 53.7223916 ] } }
]
}
